id,streetid,source,layer,name,housenumber,street,city,zipcode,length,lat,lon
"GRB:1132170","24222","GRB","street","Domentseweg","","Domentseweg","Asse","1730","104.93","50.91680094529475","4.139514064588364"
"GRB:1134329","24227","GRB","street","Dorpveld","","Dorpveld","Asse","1730","166.95","50.92419340716857","4.1541598749299125"
"GRB:1115235","27920","GRB","street","Baardegemstraat","","Baardegemstraat","Opwijk","1745","370.16","50.95215006103468","4.158438230612108"
"GRB:1108702","27979","GRB","street","Lepelstraat","","Lepelstraat","Opwijk","1745","41.66","50.944307152681965","4.1612563843720105"
"GRB:740251","28022","GRB","street","Stwg. op Aalst","","Stwg. op Aalst","Opwijk","1745","119.94","50.95878972856537","4.152878653077165"
"GRB:1132974","31357","GRB","street","Aalsterse Dreef","","Aalsterse Dreef","Affligem","1790","374.32","50.92818135384987","4.107384881818053"
"GRB:1130878","31377","GRB","street","Broekstraat","","Broekstraat","Affligem","1790","221.33","50.92017561328407","4.129101465027651"
"GRB:1136493","31380","GRB","street","Brusselbaan","","Brusselbaan","Affligem","1790","49.28","50.915974492481325","4.092673721342971"
"GRB:1132046","31391","GRB","street","Domentstraat","","Domentstraat","Affligem","1790","416.21","50.921806115407975","4.126610327569867"
"GRB:737236","31393","GRB","street","Donkerstraat","","Donkerstraat","Affligem","1790","378.68","50.907096855948154","4.0954817239910115"
"GRB:1141409","31428","GRB","street","Kluisdreef","","Kluisdreef","Affligem","1790","14.84","50.925163186738644","4.089497668198429"
"GRB:1106038","31478","GRB","street","Tenbos","","Tenbos","Affligem","1790","180.26","50.904774729500794","4.090140595147129"
"GRB:1122495","61448","GRB","street","1 Meistraat","","1 Meistraat","Aalst","9300","143.96","50.94225936324753","4.045040653817212"
"GRB:1182512","61451","GRB","street","Aartstraat","","Aartstraat","Aalst","9300","208.45","50.97750432389716","4.063439722401448"
"GRB:1143162","61452","GRB","street","Abbeelstraat","","Abbeelstraat","Aalst","9300","117.87","50.94496355980428","4.024246016785442"
"GRB:1139903","61453","GRB","street","Abdijstraat","","Abdijstraat","Aalst","1790","131.75","50.92105931350723","4.133302820264671"
"GRB:1095147","61454","GRB","street","Abrahamsweg","","Abrahamsweg","Aalst","9300","100.62","50.94702385192283","4.098775781412862"
"GRB:1186425","61457","GRB","street","Acaciastraat","","Acaciastraat","Aalst","9300","127.28","50.93200747159929","4.040590085306136"
"GRB:1114348","61458","GRB","street","Achterbremt","","Achterbremt","Aalst","9300","170.4","50.91878173213275","3.9882230663072074"
"GRB:1093195","61459","GRB","street","Achtermaal","","Achtermaal","Aalst","9300","209.75","50.93533790361626","3.998799291531112"
"GRB:1150410","61460","GRB","street","Achterstraat","","Achterstraat","Aalst","9300","233.13","50.94615514737017","4.124732070145117"
"GRB:1131262","61462","GRB","street","Achterweg","","Achterweg","Aalst","9300","264.4","50.94659542211293","4.076074780880592"
"GRB:1094870","61463","GRB","street","Affligemdreef","","Affligemdreef","Aalst","9300","412.45","50.93526070833385","4.086693083541787"
"GRB:1189472","61464","GRB","street","Albert Liénartstraat","","Albert Liénartstraat","Aalst","9300","132.36","50.94160942788798","4.0391748958974425"
"GRB:1164388","61465","GRB","street","Albrechtlaan","","Albrechtlaan","Aalst","9300","295.97","50.934421292496296","4.054839032849783"
"GRB:1137955","61466","GRB","street","Alfons De Cockstraat","","Alfons De Cockstraat","Aalst","9300","210.71","50.97344893546159","4.065350863672642"
"GRB:1237135","61467","GRB","street","Alfons Van de Maelestraat","","Alfons Van de Maelestraat","Aalst","9300","236.31","50.91921695027315","4.04894536431144"
"GRB:1187727","61468","GRB","street","Alfred Nichelsstraat","","Alfred Nichelsstraat","Aalst","9300","107.61","50.934871818966506","4.045155729676436"
"GRB:1195474","61469","GRB","street","Alverenbergbaan","","Alverenbergbaan","Aalst","9300","159.75","50.96372927532168","4.039112758678773"
"GRB:1163291","61470","GRB","street","Anjersstraat","","Anjersstraat","Aalst","9300","295.97","50.96881435588907","4.035405363491185"
"GRB:1155629","61471","GRB","street","Apostelstraat","","Apostelstraat","Aalst","9300","91.22","50.94139041368618","4.05445426441444"
"GRB:1117894","61472","GRB","street","Appelstraat","","Appelstraat","Aalst","9300","129.01","50.94055500583478","4.052180062089471"
"GRB:1117171","61473","GRB","street","Arbeidstraat","","Arbeidstraat","Aalst","9300","197.56","50.937341427992365","4.033037698134312"
"GRB:1178080","61474","GRB","street","Arendstraat","","Arendstraat","Aalst","9300","118.72","50.950508289599576","4.057256236188408"
"GRB:1217346","61475","GRB","street","Asserenbosweg","","Asserenbosweg","Aalst","9300","270.69","50.93910732371723","4.0937287076185305"
"GRB:1108364","61476","GRB","street","Asserendries","","Asserendries","Aalst","9300","192.55","50.943772975778295","4.023100486282538"
"GRB:1158337","61477","GRB","street","August Marcelstraat","","August Marcelstraat","Aalst","9300","231.62","50.931518896407894","4.034490694117987"
"GRB:1114611","61478","GRB","street","Autosnelweg Oostende-Brussel","","Autosnelweg Oostende-Brussel","Aalst","9300","6053.2","50.90608910524075","4.076036842260957"
"GRB:1231737","61479","GRB","street","Autostradelaan","","Autostradelaan","Aalst","9300","251.17","50.912383480432545","4.048462494015554"
"GRB:1116057","61480","GRB","street","Avaanstraat","","Avaanstraat","Aalst","9300","221.72","50.91610321172173","4.058051710342755"
"GRB:1137395","61481","GRB","street","Avondelsbaan","","Avondelsbaan","Aalst","9300","180.56","50.915166542593","4.070850497375376"
"GRB:1169914","61482","GRB","street","Avouéstraat","","Avouéstraat","Aalst","9300","95.41","50.950340539503316","4.089219065190613"
"GRB:1138201","61483","GRB","street","Babbelaarstraat","","Babbelaarstraat","Aalst","9300","333.08","50.97863772774036","4.020907108588691"
"GRB:1205190","61484","GRB","street","Baron de Meerstraat","","Baron de Meerstraat","Aalst","9300","156.88","50.94750229295882","4.095652689333828"
"GRB:1138701","61485","GRB","street","Baron Romain Moyersoen Park","","Baron Romain Moyersoen Park","Aalst","9300","296.68","50.93700269332084","4.057061894772827"
"GRB:1217600","61487","GRB","street","Bedrijvigheidstraat","","Bedrijvigheidstraat","Aalst","9300","105.97","50.94071049685057","4.024551931889203"
"GRB:753330","61488","GRB","street","Beekkant","","Beekkant","Aalst","9300","69.64","50.964996550478276","4.0644029030216995"
"GRB:743254","61489","GRB","street","Beekpad","","Beekpad","Aalst","9300","246.23","50.961732056603935","4.036183313467659"
"GRB:1118777","61490","GRB","street","Beekstraat","","Beekstraat","Aalst","9300","318.29","50.943720671801486","4.073210503318618"
"GRB:1236328","61492","GRB","street","Beekveldstraat","","Beekveldstraat","Aalst","9300","115.07","50.93512793076772","4.030242939891427"
"GRB:1195792","61493","GRB","street","Beekweeweg","","Beekweeweg","Aalst","9300","246.75","50.96196062924475","4.062668418155893"
"GRB:1118082","61494","GRB","street","Beekweg","","Beekweg","Aalst","9300","173.76","50.991884770859805","4.044061948249782"
"GRB:742583","61495","GRB","street","Begijnhof","","Begijnhof","Aalst","9300","76.66","50.93639105948565","4.0438819095765375"
"GRB:1155640","61496","GRB","street","Bergekouter","","Bergekouter","Aalst","9300","164.8","50.93992196750784","4.060144429152709"
"GRB:1171349","61497","GRB","street","Bergemeersenstraat","","Bergemeersenstraat","Aalst","9300","159.88","50.94046561623222","4.050713677264006"
"GRB:1110620","61499","GRB","street","Bergstraat","","Bergstraat","Aalst","9300","461.81","50.91514713786413","3.9974329532405237"
"GRB:1229987","61500","GRB","street","Bergweg","","Bergweg","Aalst","9300","250.23","50.95709876196336","4.036332745385504"
"GRB:1206335","61502","GRB","street","Berkenlaan","","Berkenlaan","Aalst","9300","417.19","50.987242943256035","4.059621942087104"
"GRB:1191811","61504","GRB","street","Bertha De Dekenlaan","","Bertha De Dekenlaan","Aalst","9300","259.68","50.91919498410374","4.073892590900069"
"GRB:1126288","61506","GRB","street","Beugemstraat","","Beugemstraat","Aalst","9300","188.07","50.95243259544358","4.093659537738335"
"GRB:1116293","61507","GRB","street","Beukendreef","","Beukendreef","Aalst","9300","244.27","50.93395435287403","4.060851880740747"
"GRB:1188623","61508","GRB","street","Beukenlaan","","Beukenlaan","Aalst","9300","174.09","50.91359103971878","4.0269577002298345"
"GRB:1112759","61509","GRB","street","Bevenhoutenweg","","Bevenhoutenweg","Aalst","9300","213.99","50.949045482697294","4.113414364348547"
"GRB:1193451","61510","GRB","street","Bevrijdingsstraat","","Bevrijdingsstraat","Aalst","9300","121.05","50.94724045996853","4.0462573781840785"
"GRB:1197251","61511","GRB","street","Biekorfstraat","","Biekorfstraat","Aalst","9300","181.38","50.9456880097208","4.020173864653116"
"GRB:1160516","61512","GRB","street","Biesebroekweg","","Biesebroekweg","Aalst","9300","66.13","50.957232243255156","4.087867680512292"
"GRB:1096529","61515","GRB","street","Bieststraat","","Bieststraat","Aalst","9300","309.7","50.96994731089127","4.037457891623498"
"GRB:1118854","61516","GRB","street","Binnenstraat","","Binnenstraat","Aalst","9300","204.26","50.94698401364477","4.051089922733324"
"GRB:1135900","61517","GRB","street","Bisschopweg","","Bisschopweg","Aalst","9300","97.83","50.9409155970065","4.139117729394964"
"GRB:1207718","61518","GRB","street","Bleekveld","","Bleekveld","Aalst","9300","405.16","50.93759727869506","4.049721469582038"
"GRB:1096246","61519","GRB","street","Blektestraat","","Blektestraat","Aalst","9300","426.99","50.95924349056318","4.01862451184945"
"GRB:750826","61521","GRB","street","Blokveldstraat","","Blokveldstraat","Aalst","9300","123.44","50.95577135864912","4.146845712158566"
"GRB:733918","61522","GRB","street","Boekhoutweg","","Boekhoutweg","Aalst","9300","120.29","50.91738884787425","4.088351673612925"
"GRB:1211975","61523","GRB","street","Boekveldbaan","","Boekveldbaan","Aalst","9300","245.53","50.95310102622773","4.099002167350192"
"GRB:1183278","61524","GRB","street","Boekweitstraat","","Boekweitstraat","Aalst","9300","57.12","50.95741533136967","4.067076433053048"
"GRB:1134587","61525","GRB","street","Bolleweg","","Bolleweg","Aalst","9300","151.37","50.943507450793305","4.046727095942212"
"GRB:1114561","61526","GRB","street","Boomgaardstraat","","Boomgaardstraat","Aalst","9300","169.72","50.95249809784764","4.046253430686843"
"GRB:1137341","61528","GRB","street","Boonhofstraat","","Boonhofstraat","Aalst","9300","210.74","50.917288035208294","4.067282829933568"
"GRB:1205749","61529","GRB","street","Borluutstraat","","Borluutstraat","Aalst","9300","90.64","50.94304400951318","4.043050216949291"
"GRB:1135666","61530","GRB","street","Bosselingen","","Bosselingen","Aalst","9300","585.3","50.9666831757359","4.041716857167544"
"GRB:1140157","61531","GRB","street","Bosstraat","","Bosstraat","Aalst","9300","456.47","50.95010756781176","4.151352270375845"
"GRB:1098910","61533","GRB","street","Bosveld","","Bosveld","Aalst","9300","271.02","50.95505231180054","4.058734729593471"
"GRB:1140484","61535","GRB","street","Botermelkstraat","","Botermelkstraat","Aalst","9300","232.9","50.95380329990643","4.0625960786713105"
"GRB:1152236","61536","GRB","street","Boterstraat","","Boterstraat","Aalst","9300","52.22","50.936901512117586","4.036432905230067"
"GRB:1528368","61537","GRB","street","Boudewijnlaan","","Boudewijnlaan","Aalst","9300","541.13","50.94789020489231","4.029285413736272"
"GRB:1203549","61538","GRB","street","Braambesstraat","","Braambesstraat","Aalst","9300","67.33","50.95780016032346","4.063440970732704"
"GRB:1199895","61539","GRB","street","Brakelstraat","","Brakelstraat","Aalst","9300","231.45","50.94565728338408","4.063289537100059"
"GRB:1109935","61542","GRB","street","Bredestraat","","Bredestraat","Aalst","9300","309.59","50.95785561202708","4.050940324911717"
"GRB:1209754","61544","GRB","street","Bredeweg","","Bredeweg","Aalst","9300","295","50.9222979697198","4.012032584310751"
"GRB:1126296","61546","GRB","street","Bremtstraat","","Bremtstraat","Aalst","9300","264.59","50.9167704150884","3.9878194993792033"
"GRB:1122263","61547","GRB","street","Broeder De Zwaeflaan","","Broeder De Zwaeflaan","Aalst","9300","291.69","50.90650137105275","4.030246256392598"
"GRB:1159925","61549","GRB","street","Broekstraat","","Broekstraat","Aalst","9300","310.94","50.96355182108861","4.069736161587834"
"GRB:1172895","61550","GRB","street","Broekveldstraat","","Broekveldstraat","Aalst","9300","259.83","50.92634857876512","3.999332183410415"
"GRB:1207723","61551","GRB","street","Brokenlochtingbaan","","Brokenlochtingbaan","Aalst","9300","393.86","50.96140279576421","4.018746355619757"
"GRB:1166161","61552","GRB","street","Bronlaan","","Bronlaan","Aalst","9300","128.33","50.90757360920745","4.07653492567079"
"GRB:1169400","61554","GRB","street","Brouwerijstraat","","Brouwerijstraat","Aalst","9300","145.43","50.947762568935644","4.042574387707408"
"GRB:1191623","61555","GRB","street","Brugstraat","","Brugstraat","Aalst","9300","113.49","50.91494782288274","4.018603975479282"
"GRB:1146331","61556","GRB","street","Brusselbaan","","Brusselbaan","Aalst","9300","384.12","50.91566967775681","4.086397563642724"
"GRB:1135154","61557","GRB","street","Brusselse steenweg","","Brusselse steenweg","Aalst","9300","315.69","50.93399658534821","4.051286527617942"
"GRB:1133789","61558","GRB","street","Bundelweestraat","","Bundelweestraat","Aalst","9300","244.72","50.98070481949","4.050758587301666"
"GRB:1154400","61559","GRB","street","Burchtstraat","","Burchtstraat","Aalst","9300","261.47","50.93606926407344","4.045432253077052"
"GRB:1109348","61560","GRB","street","Burgemeester De Cocklaan","","Burgemeester De Cocklaan","Aalst","9300","148.22","50.918796239124276","4.055460765787315"
"GRB:1154014","61561","GRB","street","Burgemeestersplein","","Burgemeestersplein","Aalst","9300","71.11","50.93359477202699","4.045503363419729"
"GRB:1179597","61562","GRB","street","Capucienenlaan","","Capucienenlaan","Aalst","9300","273.93","50.93370752611663","4.030046788894038"
"GRB:1142106","61563","GRB","street","Caudronstraat","","Caudronstraat","Aalst","9300","100.36","50.94307051802745","4.03225092290853"
"GRB:1211593","61564","GRB","street","Cesar Haeltermanstraat","","Cesar Haeltermanstraat","Aalst","9300","168.99","50.944468028680525","4.025355191824323"
"GRB:1233157","61565","GRB","street","Churchillsteenweg","","Churchillsteenweg","Aalst","9300","390.7","50.91929005621529","4.037324904049967"
"GRB:734795","61566","GRB","street","Cisweg","","Cisweg","Aalst","9300","63.92","50.939069375019145","4.10261478084045"
"GRB:1229337","61567","GRB","street","Corenteweg","","Corenteweg","Aalst","9300","164.17","50.94135771479703","4.099287223741732"
"GRB:1172922","61568","GRB","street","Cumontstraat","","Cumontstraat","Aalst","9300","79.55","50.94311203402252","4.037161445217741"
"GRB:1130345","61569","GRB","street","Damkouterbaan","","Damkouterbaan","Aalst","9300","319.3","50.982385147013446","4.042710914878858"
"GRB:1115326","61570","GRB","street","Damstraat","","Damstraat","Aalst","9300","260.6","50.91701153428424","4.005376177838722"
"GRB:1117835","61571","GRB","street","De Boomstraat","","De Boomstraat","Aalst","9300","149.28","50.92426390686533","4.069742200965956"
"GRB:1191698","61573","GRB","street","De Gheeststraat","","De Gheeststraat","Aalst","9300","117.57","50.93443054864829","4.045755973755847"
"GRB:1218323","61575","GRB","street","De Naeyerstraat","","De Naeyerstraat","Aalst","9300","101.24","50.95444882136798","4.028998321255151"
"GRB:1186485","61576","GRB","street","De Ridderstraat","","De Ridderstraat","Aalst","9300","157.37","50.93958472137519","4.035970196622609"
"GRB:1156051","61577","GRB","street","De Schrijverstraat","","De Schrijverstraat","Aalst","9300","69.61","50.94327106804967","4.031472603674516"
"GRB:1157710","61578","GRB","street","De Vilanderstraat","","De Vilanderstraat","Aalst","9300","137.86","50.933152022706395","4.047824919205193"
"GRB:1147877","61579","GRB","street","De Visscherestraat","","De Visscherestraat","Aalst","9300","89.75","50.94290731533385","4.0331658735128615"
"GRB:1190777","61580","GRB","street","Dekkersweg","","Dekkersweg","Aalst","9300","148.95","50.9827220008779","4.050942890496335"
"GRB:1110185","61582","GRB","street","Dendermondse steenweg","","Dendermondse steenweg","Aalst","9300","285.29","50.94382649740366","4.034879784641406"
"GRB:1169020","61585","GRB","street","Denderstraat","","Denderstraat","Aalst","9300","183.25","50.943202226220805","4.035826950104938"
"GRB:1135651","61586","GRB","street","Denderweg","","Denderweg","Aalst","9300","367.94","50.978029338447094","4.057378421500583"
"GRB:1167057","61587","GRB","street","Dennenboomstraat","","Dennenboomstraat","Aalst","9300","99.51","50.93274668723224","4.0792404352437925"
"GRB:1156423","61588","GRB","street","Dennenlaan","","Dennenlaan","Aalst","9300","139.21","50.914384067699714","4.03093866555307"
"GRB:1195664","61589","GRB","street","Désiré De Wolfstraat","","Désiré De Wolfstraat","Aalst","9300","218.59","50.932192281162564","4.047461954310433"
"GRB:1205353","61591","GRB","street","Diepestraat","","Diepestraat","Aalst","9300","234.06","50.929095705633614","4.034041272750428"
"GRB:1152506","61592","GRB","street","Dijkstraat","","Dijkstraat","Aalst","9300","119.16","50.96055263409317","4.049956958381536"
"GRB:1150286","61593","GRB","street","Dijkweg","","Dijkweg","Aalst","9300","98.47","50.98814329481787","4.0506629384314055"
"GRB:1129347","61594","GRB","street","Dirk Martensstraat","","Dirk Martensstraat","Aalst","9300","220.25","50.94209050271157","4.033663077484588"
"GRB:1164237","61595","GRB","street","Disgenaatdreef","","Disgenaatdreef","Aalst","9300","348.58","50.98222393961823","4.070617312386659"
"GRB:1108567","61596","GRB","street","Distelstraat","","Distelstraat","Aalst","9300","53.41","50.953478404763175","4.045891564108594"
"GRB:1214352","61597","GRB","street","Doctoorstraat","","Doctoorstraat","Aalst","9300","118.26","50.94145174210484","4.0920007886857075"
"GRB:1141541","61598","GRB","street","Dokter André Goffaertsstraat","","Dokter André Goffaertsstraat","Aalst","9300","253.35","50.92945779582496","4.036774557027948"
"GRB:1118961","61599","GRB","street","Dokter Carlierlaan","","Dokter Carlierlaan","Aalst","9300","233.96","50.91377551257038","4.0606462305153785"
"GRB:1167926","61600","GRB","street","Dokter De Cockstraat","","Dokter De Cockstraat","Aalst","9300","183.54","50.99163540027613","4.042286675597921"
"GRB:1187288","61601","GRB","street","Dokter De Moorstraat","","Dokter De Moorstraat","Aalst","9300","200.56","50.944236469684654","4.044992472090312"
"GRB:1116546","61602","GRB","street","Dom Modest Van Asschelaan","","Dom Modest Van Asschelaan","Aalst","9300","210.45","50.90922794488418","4.083678841833302"
"GRB:1211488","61603","GRB","street","Domentstraat","","Domentstraat","Aalst","9300","210.97","50.92415732051835","4.137289961081894"
"GRB:1156040","61604","GRB","street","Dompelstraat","","Dompelstraat","Aalst","9300","129.87","50.95152659636252","4.052600300251675"
"GRB:1109615","61605","GRB","street","Doolhofstraat","","Doolhofstraat","Aalst","9300","245.62","50.9405009703168","4.049217848891494"
"GRB:1149525","61606","GRB","street","Doornstraat","","Doornstraat","Aalst","9300","183.88","50.94722280515897","4.0626182104576865"
"GRB:1526407","61607","GRB","street","Doornveld","","Doornveld","Aalst","9300","92.64","50.94573865611087","4.072935039840267"
"GRB:1158111","61608","GRB","street","Doriksveld","","Doriksveld","Aalst","9300","141.01","50.96161453093858","4.0258595831934425"
"GRB:1229290","61618","GRB","street","Draaiersstraat","","Draaiersstraat","Aalst","9300","100.65","50.94937669800928","4.0628199746283915"
"GRB:1109265","61619","GRB","street","Drapstraat","","Drapstraat","Aalst","9300","182.37","50.98344751280163","4.035513358324383"
"GRB:1210179","61621","GRB","street","Dreefstraat","","Dreefstraat","Aalst","9300","262.35","50.91235667322393","4.0264306827473515"
"GRB:1204665","61622","GRB","street","Drie Sleutelsstraat","","Drie Sleutelsstraat","Aalst","9300","166.82","50.94719709472404","4.043881299843542"
"GRB:1205131","61623","GRB","street","Drie Veldenweg","","Drie Veldenweg","Aalst","9300","116.2","50.94536601879348","4.056625451095776"
"GRB:1185173","61624","GRB","street","Driehoekstraat","","Driehoekstraat","Aalst","9300","288.75","50.91019705656698","4.035463772680565"
"GRB:1103369","61625","GRB","street","Dries","","Dries","Aalst","9300","233.99","50.911647421169","4.020693487123831"
"GRB:1526385","61630","GRB","street","Duivekeetstraat","","Duivekeetstraat","Aalst","9300","140.39","50.93841908860662","4.031363897330481"
"GRB:1181520","61631","GRB","street","Dwarsstraat","","Dwarsstraat","Aalst","9300","246.71","50.92149501979864","4.013492234623533"
"GRB:1235261","61632","GRB","street","Edixvelde","","Edixvelde","Aalst","9300","242.14","50.91954431373805","3.9888185499867435"
"GRB:1236051","61634","GRB","street","Eeckhoutstraat","","Eeckhoutstraat","Aalst","9300","166.81","50.928898891134004","4.131690714742818"
"GRB:1526365","61635","GRB","street","Eendrachtstraat","","Eendrachtstraat","Aalst","9300","160.03","50.95002490395268","4.038942564385567"
"GRB:1195674","61636","GRB","street","Eerdegemstraat","","Eerdegemstraat","Aalst","9300","229.83","50.96357517642367","4.128781107367938"
"GRB:1171791","61637","GRB","street","Eglantierstraat","","Eglantierstraat","Aalst","9300","96.02","50.95703780039838","4.062579183334953"
"GRB:1154008","61640","GRB","street","Eikstraat","","Eikstraat","Aalst","9300","188.84","50.932484362155904","4.037601547742811"
"GRB:1472495","61642","GRB","street","Elderbergstraat","","Elderbergstraat","Aalst","9300","189.14","50.95075991634736","4.127937532158906"
"GRB:1492263","61643","GRB","street","Engelstraat","","Engelstraat","Aalst","9300","66.45","50.951618417546456","4.042591321617867"
"GRB:1149415","61644","GRB","street","Erembodegemstraat","","Erembodegemstraat","Aalst","9300","175.51","50.93078097298934","4.048852581224125"
"GRB:1196453","61645","GRB","street","Erkendries","","Erkendries","Aalst","9300","166.65","50.91481489143033","4.019741028763484"
"GRB:1231218","61646","GRB","street","Erpestraat","","Erpestraat","Aalst","9300","182.74","50.942692428192174","3.998695577868665"
"GRB:1107053","61647","GRB","street","Esplanadeplein","","Esplanadeplein","Aalst","9300","61.35","50.94150822285932","4.036335053917682"
"GRB:1203341","61648","GRB","street","Esplanadestraat","","Esplanadestraat","Aalst","9300","102.53","50.94097237863729","4.037243074007394"
"GRB:1162923","61649","GRB","street","Essenlaan","","Essenlaan","Aalst","9300","113.27","50.9872861071145","4.056201677037338"
"GRB:1117001","61650","GRB","street","Eugeen Bosteelsstraat","","Eugeen Bosteelsstraat","Aalst","9300","139.43","50.93283745885428","4.047425984881352"
"GRB:1236688","61652","GRB","street","Europastraat","","Europastraat","Aalst","9300","196.45","50.94789373568609","4.138917885725421"
"GRB:1166724","61653","GRB","street","Expostraat","","Expostraat","Aalst","9300","50.39","50.942936602341426","4.0168887993088696"
"GRB:1171941","61654","GRB","street","Exterkenstraat","","Exterkenstraat","Aalst","9300","179.1","50.951298673566335","4.104419209532617"
"GRB:1131703","61655","GRB","street","Fabriekstraat","","Fabriekstraat","Aalst","9300","49.17","50.94190853630929","4.036227715877762"
"GRB:1167099","61656","GRB","street","Fatimawijk","","Fatimawijk","Aalst","9300","127.03","50.98666247786453","4.04852329749151"
"GRB:1126119","61657","GRB","street","Fazantenlaan","","Fazantenlaan","Aalst","9300","286.25","50.918273816769045","4.079641108818652"
"GRB:1207652","61658","GRB","street","Felix de Hertstraat","","Felix de Hertstraat","Aalst","9300","96.57","50.93210141321397","4.042418564587417"
"GRB:1160744","61659","GRB","street","Fijfelweg","","Fijfelweg","Aalst","9300","308.66","50.95275551246851","4.0976242849547395"
"GRB:1116999","61660","GRB","street","Fonteinbos","","Fonteinbos","Aalst","9300","276.52","50.92059616998027","4.080729863107742"
"GRB:1203105","61661","GRB","street","Fonteinstraat","","Fonteinstraat","Aalst","9300","125.53","50.94887540675297","4.064155662227798"
"GRB:1111698","61662","GRB","street","Fortweg","","Fortweg","Aalst","9300","112.69","50.96217848332476","4.093936058906606"
"GRB:1195623","61663","GRB","street","Frans Blanckaertdreef","","Frans Blanckaertdreef","Aalst","9300","144.29","50.92737274949337","4.044393085241862"
"GRB:1116127","61664","GRB","street","Frans Breckpotwijk","","Frans Breckpotwijk","Aalst","9300","214.82","50.9461497341491","4.042718233863715"
"GRB:1185342","61666","GRB","street","Gardebaan","","Gardebaan","Aalst","9300","157.68","50.94961061629275","4.087951548593518"
"GRB:1184063","61667","GRB","street","Garenstraat","","Garenstraat","Aalst","9300","73.96","50.950138947875786","4.032302049252404"
"GRB:1109671","61668","GRB","street","Gasthuisstraat","","Gasthuisstraat","Aalst","9300","133.03","50.94409200153999","4.043439107707631"
"GRB:1108510","61669","GRB","street","Gaston De Schepperstraat","","Gaston De Schepperstraat","Aalst","9300","225.83","50.918017409403916","4.059191311994775"
"GRB:1168033","61670","GRB","street","Gefusilleerdenstraat","","Gefusilleerdenstraat","Aalst","9300","105.86","50.94891372603476","4.05478427467231"
"GRB:1173655","61671","GRB","street","Geldhofstraat","","Geldhofstraat","Aalst","9300","163.1","50.9486870336582","4.051865061786797"
"GRB:1217336","61672","GRB","street","Geneverweg","","Geneverweg","Aalst","9300","166.06","50.93864343374222","4.09760038243851"
"GRB:1462999","61673","GRB","street","Gentse steenweg","","Gentse steenweg","Aalst","9300","375.94","50.94031039119326","4.0125602378265794"
"GRB:1143732","61674","GRB","street","Gentsestraat","","Gentsestraat","Aalst","9300","189.95","50.93761896120256","4.030004138092145"
"GRB:1231012","61675","GRB","street","Geraardsbergsesteenweg","","Geraardsbergsesteenweg","Aalst","9300","761.23","50.92472576378266","4.032281600295055"
"GRB:1138065","61676","GRB","street","Geraardsbergsestraat","","Geraardsbergsestraat","Aalst","9300","212.24","50.92979581879352","4.03562282336633"
"GRB:1221778","61678","GRB","street","Gerstenstraat","","Gerstenstraat","Aalst","9300","180.84","50.92141442632449","4.060536292936605"
"GRB:1093491","61679","GRB","street","Gevergemveldbaan","","Gevergemveldbaan","Aalst","9300","242.55","50.96270167172111","4.107928202283658"
"GRB:1161488","61681","GRB","street","Gheeraerdtsstraat","","Gheeraerdtsstraat","Aalst","9300","117.04","50.94449716368476","4.0363500315711915"
"GRB:1235940","61682","GRB","street","Goosenbroeck","","Goosenbroeck","Aalst","9300","117.16","50.93708412432937","4.139009998008181"
"GRB:1100731","61683","GRB","street","Goudbloemstraat","","Goudbloemstraat","Aalst","9300","152.64","50.94677068225598","4.057751895800421"
"GRB:1133725","61684","GRB","street","Gouden Leeuwstraat","","Gouden Leeuwstraat","Aalst","9300","98.48","50.94865115955749","4.050372526390538"
"GRB:1096544","61685","GRB","street","Graanmarkt","","Graanmarkt","Aalst","9300","93.97","50.940071020452045","4.040279296262783"
"GRB:1225624","61686","GRB","street","Graanveld","","Graanveld","Aalst","9300","55.3","50.95543221941887","4.0602631326562255"
"GRB:1204033","61688","GRB","street","Groeneweg","","Groeneweg","Aalst","9300","148.37","50.91750576725407","4.040921664371606"
"GRB:1167977","61689","GRB","street","Groenstraat","","Groenstraat","Aalst","9300","157.19","50.94553112961624","4.0554071555091165"
"GRB:1526373","61694","GRB","street","Grote Baan","","Grote Baan","Aalst","9300","317.44","50.96273690139152","4.059488071237264"
"GRB:1433716","61695","GRB","street","Grote Markt","","Grote Markt","Aalst","9300","67.39","50.93858545222276","4.038293851403182"
"GRB:1185307","61696","GRB","street","Grotendriesstraat","","Grotendriesstraat","Aalst","9300","88.37","50.920453068839876","4.138299502347092"
"GRB:1176573","61697","GRB","street","Grotstraat","","Grotstraat","Aalst","9300","122.01","50.94090707048706","4.060261124816408"
"GRB:1112034","61698","GRB","street","Gudstraat","","Gudstraat","Aalst","9300","245.3","50.95983034763565","4.08073573277997"
"GRB:1159805","61699","GRB","street","Guido Gezellestraat","","Guido Gezellestraat","Aalst","9300","202.28","50.944473248806204","4.059660417979687"
"GRB:1199962","61701","GRB","street","Guldenboomplein","","Guldenboomplein","Aalst","9300","75.4","50.94942175642984","4.032327724039623"
"GRB:1167511","61702","GRB","street","Gustaaf Papestraat","","Gustaaf Papestraat","Aalst","9300","172.28","50.93418334861435","4.0328892642991825"
"GRB:1131282","61703","GRB","street","Haaltertstraat","","Haaltertstraat","Aalst","9300","265.9","50.91350552832977","4.003532154076338"
"GRB:1117169","61704","GRB","street","Hageveld","","Hageveld","Aalst","9300","153.62","50.92165817772106","4.0770248925871195"
"GRB:1117180","61705","GRB","street","Hakelenberg","","Hakelenberg","Aalst","9300","89.64","50.937271592574135","4.063185669486949"
"GRB:1184057","61706","GRB","street","Hammestraat","","Hammestraat","Aalst","9300","457.64","50.96237705408544","4.0483165710948406"
"GRB:1156477","61708","GRB","street","Hardingstraat","","Hardingstraat","Aalst","9300","202.33","50.96936189428016","4.073503736464511"
"GRB:1147062","61709","GRB","street","Haverenbosweg","","Haverenbosweg","Aalst","9300","162.64","50.96386367744303","4.099856447944169"
"GRB:1160657","61710","GRB","street","Haverveld","","Haverveld","Aalst","9300","100.82","50.95550565760793","4.06107272335141"
"GRB:1176063","61711","GRB","street","Hazelaarstraat","","Hazelaarstraat","Aalst","9300","179.6","50.9264695756129","4.020026990060198"
"GRB:1108282","61712","GRB","street","Heidestraat","","Heidestraat","Aalst","9300","149.98","50.954288113873595","4.059862400585205"
"GRB:1528369","61713","GRB","street","Heilig Hartlaan","","Heilig Hartlaan","Aalst","9300","599.61","50.94917389521615","4.035238612351889"
"GRB:1142245","61714","GRB","street","Hekkestraat","","Hekkestraat","Aalst","9300","235.24","50.96918076821199","4.043289223513873"
"GRB:1218445","61715","GRB","street","Hendrik Consciencestraat","","Hendrik Consciencestraat","Aalst","9300","135.19","50.95569489589284","4.036111231094922"
"GRB:1177140","61716","GRB","street","Herbergstraat","","Herbergstraat","Aalst","9300","237.39","50.96585435179565","4.1027946983135175"
"GRB:1218542","61717","GRB","street","Herenbergdreef","","Herenbergdreef","Aalst","9300","128.65","50.964920495274335","4.103975726248365"
"GRB:1200155","61718","GRB","street","Hertshage","","Hertshage","Aalst","9300","114.25","50.94754522462529","4.040652190149934"
"GRB:1230125","61719","GRB","street","Heuvel","","Heuvel","Aalst","9300","264.5","50.92335769926926","4.071419695677177"
"GRB:1113168","61721","GRB","street","Hippoliet Meertwijk","","Hippoliet Meertwijk","Aalst","9300","94.4","50.944887662830894","4.04469823361982"
"GRB:1129244","61722","GRB","street","Hoekskenstraat","","Hoekskenstraat","Aalst","9300","117.8","50.96349585190011","4.094809195697458"
"GRB:1208111","61723","GRB","street","Hoenderveld","","Hoenderveld","Aalst","9300","68.61","50.951268143555325","4.044228870299432"
"GRB:1236330","61725","GRB","street","Hoezestraat","","Hoezestraat","Aalst","9300","222.78","50.92010156116877","4.016686915378721"
"GRB:1192791","61726","GRB","street","Hof Leeuwergem","","Hof Leeuwergem","Aalst","9300","213.47","50.9305324113208","4.078060035676612"
"GRB:1150323","61727","GRB","street","Hof Somergem","","Hof Somergem","Aalst","9300","120.59","50.92601964788592","4.080179061569099"
"GRB:1192834","61728","GRB","street","Hof te Wachenenstraat","","Hof te Wachenenstraat","Aalst","9300","350.12","50.966203033872524","4.038544393624386"
"GRB:1115106","61729","GRB","street","Hof ten Bergestraat","","Hof ten Bergestraat","Aalst","9300","180.57","50.93827624776385","4.068723434363073"
"GRB:1220003","61730","GRB","street","Hof ter Burghtstraat","","Hof ter Burghtstraat","Aalst","9300","122.28","50.915050292211106","4.061246139555856"
"GRB:1178304","61731","GRB","street","Hof ter Lokerenstraat","","Hof ter Lokerenstraat","Aalst","9300","191.19","50.9129958935141","4.029467096787781"
"GRB:1211673","61733","GRB","street","Hofmeers","","Hofmeers","Aalst","9300","115.3","50.956960907845556","4.032568849314717"
"GRB:1433594","61734","GRB","street","Hoge Steenberg","","Hoge Steenberg","Aalst","9300","71.87","50.9470869617825","4.0496220590875"
"GRB:1121507","61735","GRB","street","Hoge Vesten","","Hoge Vesten","Aalst","9300","173.13","50.94115404197374","4.045512724315463"
"GRB:1110534","61737","GRB","street","Hogeweg","","Hogeweg","Aalst","9300","211.08","50.920790976442746","4.067567449332873"
"GRB:1182568","61738","GRB","street","Hollestraat","","Hollestraat","Aalst","9300","156.14","50.96007491421278","4.100197183021265"
"GRB:1227327","61739","GRB","street","Holleweg","","Holleweg","Aalst","9300","160.46","50.917148769854805","4.04688956365709"
"GRB:1109029","61740","GRB","street","Hoogstraat","","Hoogstraat","Aalst","9300","220.69","50.96270375918851","4.035209997778899"
"GRB:1172789","61744","GRB","street","Hoogveld","","Hoogveld","Aalst","9300","113.18","50.94892726324734","4.061915750062084"
"GRB:1469906","61745","GRB","street","Hopmarkt","","Hopmarkt","Aalst","9300","123.32","50.93776678032454","4.037498196089277"
"GRB:1205668","61746","GRB","street","Hopstraat","","Hopstraat","Aalst","9300","61.07","50.95046477793146","4.064825722674051"
"GRB:1108720","61748","GRB","street","Horebekeveld","","Horebekeveld","Aalst","9300","87.46","50.95471464833607","4.0635873604498745"
"GRB:1210860","61749","GRB","street","Horingstraat","","Horingstraat","Aalst","9300","264.79","50.926605635589205","4.123354071653549"
"GRB:1212414","61751","GRB","street","Hospitaalstraat","","Hospitaalstraat","Aalst","9300","97.36","50.94496015229758","4.043405289281777"
"GRB:1165326","61752","GRB","street","Houtenkruisstraat","","Houtenkruisstraat","Aalst","9300","123.4","50.96298482652814","4.097947410449193"
"GRB:1142654","61753","GRB","street","Houtkaai","","Houtkaai","Aalst","9300","69.96","50.94265082550699","4.042428881887192"
"GRB:1229690","61754","GRB","street","Houtmarkt","","Houtmarkt","Aalst","9300","117.9","50.93437172897812","4.043786131393222"
"GRB:1113351","61755","GRB","street","Hoveniersplein","","Hoveniersplein","Aalst","9300","84.4","50.94149452781361","4.046186531681581"
"GRB:1136194","61756","GRB","street","Hoveniersstraat","","Hoveniersstraat","Aalst","9300","101.33","50.94323422348802","4.045088615714103"
"GRB:1166998","61757","GRB","street","Hugo Lefèvrestraat","","Hugo Lefèvrestraat","Aalst","9300","176.25","50.93155836386515","4.03747755644154"
"GRB:1198572","61758","GRB","street","Huisebaan","","Huisebaan","Aalst","9300","159.3","50.97588553153386","4.03959985474514"
"GRB:1184159","61759","GRB","street","Huiversputbaan","","Huiversputbaan","Aalst","9300","76.92","50.975440992493816","4.029609770632603"
"GRB:1118157","61760","GRB","street","Huizekensstraat","","Huizekensstraat","Aalst","9300","276.1","50.93707213564062","4.1441670050395105"
"GRB:1166946","61761","GRB","street","Huyseveldstraat","","Huyseveldstraat","Aalst","9300","181.81","50.92138923514467","4.1352075101331796"
"GRB:1099136","61762","GRB","street","Huytstraat","","Huytstraat","Aalst","9300","255.61","50.914858532501775","3.988796919316518"
"GRB:1433741","61763","GRB","street","Hyacinthenstraat","","Hyacinthenstraat","Aalst","9300","128.91","50.93121390815804","4.07684945954472"
"GRB:1174859","61764","GRB","street","Ijsbroekstraat","","Ijsbroekstraat","Aalst","9300","144.97","50.98458797312711","4.045382430446434"
"GRB:1118061","61767","GRB","street","Ijzerenwegstraat","","Ijzerenwegstraat","Aalst","9300","367.15","50.92106689386425","4.054857699211194"
"GRB:1484946","61768","GRB","street","Immerzeeldreef","","Immerzeeldreef","Aalst","9300","212.72","50.93129564931059","4.0739365865073385"
"GRB:1178649","61769","GRB","street","Industrielaan","","Industrielaan","Aalst","9300","199.21","50.914938788440054","4.038703402251978"
"GRB:743249","61770","GRB","street","Ingang Backaert","","Ingang Backaert","Aalst","9300","95.93","50.94185434927736","4.048175924000357"
"GRB:1140688","61771","GRB","street","Ingang Bonner","","Ingang Bonner","Aalst","9300","137.83","50.946641973480716","4.024879383940809"
"GRB:1228011","61776","GRB","street","Ingang De Prez","","Ingang De Prez","Aalst","9300","56.6","50.93981050246606","4.029054911927965"
"GRB:1226167","61777","GRB","street","Ingang Jelie","","Ingang Jelie","Aalst","9300","40.34","50.93923957933061","4.0279767517046725"
"GRB:1184164","61779","GRB","street","Ingang Levionois","","Ingang Levionois","Aalst","9300","33.54","50.9359655205465","4.040412333689652"
"GRB:1433729","61781","GRB","street","Ingang Van Bemten","","Ingang Van Bemten","Aalst","9300","39.39","50.94390879012214","4.030764262582229"
"GRB:1216608","61784","GRB","street","Irisstraat","","Irisstraat","Aalst","9300","95.66","50.94386206140057","4.01718909847585"
"GRB:1210053","61786","GRB","street","Jan Bijlstraat","","Jan Bijlstraat","Aalst","9300","99.66","50.948028992505066","4.046210880708814"
"GRB:1203357","61787","GRB","street","Jan De Windtstraat","","Jan De Windtstraat","Aalst","9300","212.14","50.94418224125916","4.045727222246683"
"GRB:1185444","61788","GRB","street","Jan Frans Vonckstraat","","Jan Frans Vonckstraat","Aalst","9300","331.82","50.9630973391581","4.137556546075204"
"GRB:1433593","61789","GRB","street","Jan Jeliestraat","","Jan Jeliestraat","Aalst","9300","167.68","50.9523904508606","4.0430911812249235"
"GRB:1157131","61790","GRB","street","Jasmijnstraat","","Jasmijnstraat","Aalst","9300","77.74","50.94879606188824","4.044540251220635"
"GRB:1217475","61791","GRB","street","Josse Ringoirkaai","","Josse Ringoirkaai","Aalst","9300","152.09","50.94164877505365","4.042842414425152"
"GRB:1188375","61792","GRB","street","Jozef Meganckstraat","","Jozef Meganckstraat","Aalst","9300","189.33","50.942985804582236","4.030096417554474"
"GRB:1227190","61793","GRB","street","Kaai","","Kaai","Aalst","9300","45.12","50.92026098654473","4.059530445795284"
"GRB:1176286","61794","GRB","street","Kaalbergstraat","","Kaalbergstraat","Aalst","9300","183.76","50.94760048299971","4.094231352356153"
"GRB:1142514","61795","GRB","street","Kaardeveldweg","","Kaardeveldweg","Aalst","9300","320.06","50.92082112997072","4.054916800132515"
"GRB:1526390","61796","GRB","street","Kalfstraat","","Kalfstraat","Aalst","9300","122.41","50.93443613935616","4.036420763584339"
"GRB:1229997","61797","GRB","street","Kamiel Walgraefplein","","Kamiel Walgraefplein","Aalst","9300","47.43","50.919380478747925","4.055791421369146"
"GRB:1115449","61798","GRB","street","Kammenstraat","","Kammenstraat","Aalst","9300","240.11","50.95478158091035","4.035281482482971"
"GRB:1122621","61800","GRB","street","Kantonstraat","","Kantonstraat","Aalst","9300","207.82","50.92651428164245","4.007110977658549"
"GRB:1514280","61801","GRB","street","Kanunnik Colinetstraat","","Kanunnik Colinetstraat","Aalst","9300","42.1","50.93471843070553","4.037632355997398"
"GRB:1484942","61803","GRB","street","Kapellekensbaan","","Kapellekensbaan","Aalst","9300","334.25","50.92503211610231","4.052227900796779"
"GRB:1134292","61805","GRB","street","Kapelleommegang","","Kapelleommegang","Aalst","9300","238.36","50.963927153885976","4.06702599529893"
"GRB:1217355","61810","GRB","street","Kapellestraat","","Kapellestraat","Aalst","9300","262.55","50.91393280968039","4.078525237306686"
"GRB:1169966","61811","GRB","street","Kapelleveld","","Kapelleveld","Aalst","9300","89.33","50.91329653129519","4.0731866836207375"
"GRB:731568","61812","GRB","street","Kapelleweg","","Kapelleweg","Aalst","9300","94.01","50.96361395340026","4.109177784976878"
"GRB:1220511","61813","GRB","street","Kapiteintjesstraat","","Kapiteintjesstraat","Aalst","9300","192.53","50.93503735717022","4.0351455998407095"
"GRB:1099651","61814","GRB","street","Kapittelstraat","","Kapittelstraat","Aalst","9300","151.16","50.94141669895813","4.090509166831711"
"GRB:1472502","61815","GRB","street","Kareelstraat","","Kareelstraat","Aalst","9300","587.75","50.92546305854185","4.032738595360473"
"GRB:1229622","61816","GRB","street","Karel Van de Woestijnestraat","","Karel Van de Woestijnestraat","Aalst","9300","151.94","50.934957735517784","4.028359945801"
"GRB:1217603","61823","GRB","street","Katelijnestraat","","Katelijnestraat","Aalst","9300","131.76","50.96930010411864","4.041460616401869"
"GRB:1184062","61824","GRB","street","Katoenstraat","","Katoenstraat","Aalst","9300","94.45","50.950275827493265","4.031448421007307"
"GRB:1167113","61825","GRB","street","Kattenbroekstraat","","Kattenbroekstraat","Aalst","9300","206.46","50.95725774667545","4.084652675586059"
"GRB:1200470","61826","GRB","street","Kattestraat","","Kattestraat","Aalst","9300","133.3","50.94035374459183","4.0364496744794"
"GRB:1165596","61828","GRB","street","Keienberg","","Keienberg","Aalst","9300","142","50.94431418415763","4.0560348444720296"
"GRB:1234264","61829","GRB","street","Keimolen","","Keimolen","Aalst","9300","113.51","50.96777931361736","4.101197376836424"
"GRB:770674","61830","GRB","street","Keizersplein","","Keizersplein","Aalst","9300","222.92","50.936446530896696","4.036505596488594"
"GRB:757011","61831","GRB","street","Keizerstraat","","Keizerstraat","Aalst","9300","516.89","50.93081383693017","4.009277985896331"
"GRB:1507595","61832","GRB","street","Keppestraat","","Keppestraat","Aalst","9300","216.72","50.91736660767265","4.050231204065773"
"GRB:1130717","61833","GRB","street","Kerkhof","","Kerkhof","Aalst","9300","85.52","50.92881126670844","4.031801983960838"
"GRB:1124253","61835","GRB","street","Kerkhoflaan","","Kerkhoflaan","Aalst","9300","191.49","50.930554102393664","4.034728518591252"
"GRB:1113590","61838","GRB","street","Kerkmeersstraat","","Kerkmeersstraat","Aalst","9300","175.08","50.924853901438844","4.01141836680361"
"GRB:1209938","61841","GRB","street","Kerkstraat","","Kerkstraat","Aalst","9300","84.39","50.93812507643452","4.039917780978371"
"GRB:1099295","61848","GRB","street","Kerkveldweg","","Kerkveldweg","Aalst","9300","149.86","50.925512260809526","4.007352337734987"
"GRB:1118326","61852","GRB","street","Kerrebroekstraat","","Kerrebroekstraat","Aalst","9300","206.97","50.95066976881507","4.029322238826632"
"GRB:1151527","61853","GRB","street","Kerselaarstraat","","Kerselaarstraat","Aalst","9300","128.71","50.92776062749489","4.004005209890007"
"GRB:1100830","61854","GRB","street","Klaarhaagstraat","","Klaarhaagstraat","Aalst","9300","544","50.93687458235756","4.105958703742849"
"GRB:1196881","61855","GRB","street","Klaproosstraat","","Klaproosstraat","Aalst","9300","277.89","50.95696815522882","4.067625465250121"
"GRB:1155239","61856","GRB","street","Klapstraat","","Klapstraat","Aalst","9300","127.94","50.936324068571146","4.041422527350579"
"GRB:1103147","61857","GRB","street","Klaterbaan","","Klaterbaan","Aalst","9300","242.99","50.938729166176216","4.063576985969826"
"GRB:1109797","61858","GRB","street","Klausstraat","","Klausstraat","Aalst","9300","379.36","50.962478616860345","4.085517306878568"
"GRB:1433687","61859","GRB","street","Klein Begijnhof","","Klein Begijnhof","Aalst","9300","61.58","50.94246977954858","4.047134542036456"
"GRB:1113304","61861","GRB","street","Kleinderbeek","","Kleinderbeek","Aalst","9300","124.81","50.92379967888393","4.001810718066425"
"GRB:1124488","61862","GRB","street","Kleindriesstraat","","Kleindriesstraat","Aalst","9300","415.7","50.92643723972742","4.130567353367119"
"GRB:1190100","61863","GRB","street","Kleine Hoezekouter","","Kleine Hoezekouter","Aalst","9300","167.48","50.926710757218906","4.031507973250412"
"GRB:1093156","61865","GRB","street","Kleistraat","","Kleistraat","Aalst","9300","205.81","50.90943880777458","4.077561980653709"
"GRB:1110990","61867","GRB","street","Kloosterstraat","","Kloosterstraat","Aalst","9300","165.13","50.94890391484624","4.097853907932528"
"GRB:1526370","61868","GRB","street","Kloosterweg","","Kloosterweg","Aalst","9300","156.34","50.92762217936991","4.071737634319897"
"GRB:1106520","61870","GRB","street","Kluisdreef","","Kluisdreef","Aalst","9300","348.41","50.933570566215735","4.070269974912201"
"GRB:774278","61873","GRB","street","Kluizestraat","","Kluizestraat","Aalst","9300","206.34","50.92400579200524","4.075595423640601"
"GRB:1193348","61875","GRB","street","Koebrugstraat","","Koebrugstraat","Aalst","9300","271.67","50.94301400730431","4.087924608469712"
"GRB:1113846","61876","GRB","street","Koeisteertweg","","Koeisteertweg","Aalst","9300","169.06","50.94782568685266","4.111644051852308"
"GRB:1106576","61877","GRB","street","Koeistraat","","Koeistraat","Aalst","9300","154.07","50.93902133901483","4.076920566198054"
"GRB:1211465","61878","GRB","street","Koeweideweg","","Koeweideweg","Aalst","9300","231.29","50.92763315124709","4.135845161925801"
"GRB:1178694","61879","GRB","street","Kokerijstraat","","Kokerijstraat","Aalst","9300","233.59","50.9370069346786","4.128608911612657"
"GRB:1117755","61880","GRB","street","Kokstraat","","Kokstraat","Aalst","9300","173.23","50.96272692082462","4.109743973464943"
"GRB:1166547","61881","GRB","street","Konijnaardeweg","","Konijnaardeweg","Aalst","9300","95.93","50.95199590044363","4.107069920789249"
"GRB:1103100","61882","GRB","street","Koning Albertstraat","","Koning Albertstraat","Aalst","9300","158.17","50.957625289148474","4.086318002549384"
"GRB:1118564","61883","GRB","street","Koningin Astrid Park","","Koningin Astrid Park","Aalst","9300","128.34","50.93876298116852","4.027959253366129"
"GRB:1172964","61884","GRB","street","Koningshofbaan","","Koningshofbaan","Aalst","9300","590.09","50.972111811213956","4.043959835529265"
"GRB:1175600","61885","GRB","street","Koolstraat","","Koolstraat","Aalst","9300","155.11","50.9385563532475","4.026510838914919"
"GRB:1137539","61886","GRB","street","Korenbloemstraat","","Korenbloemstraat","Aalst","9300","41.97","50.95701402711863","4.065869939607811"
"GRB:1205362","61887","GRB","street","Korte Binnenstraat","","Korte Binnenstraat","Aalst","9300","73.62","50.94382625254519","4.047871877667591"
"GRB:1433780","61888","GRB","street","Korte Keppestraat","","Korte Keppestraat","Aalst","9300","439.39","50.91583858127436","4.042360796883756"
"GRB:1213562","61889","GRB","street","Korte Lindenstraat","","Korte Lindenstraat","Aalst","9300","174.45","50.93985411818509","4.02018514714904"
"GRB:1190568","61890","GRB","street","Korte Moutstraat","","Korte Moutstraat","Aalst","9300","65.02","50.942281049025055","4.043429420883333"
"GRB:1236374","61891","GRB","street","Korte Nieuwstraat","","Korte Nieuwstraat","Aalst","9300","86.35","50.937309745102354","4.035959017482473"
"GRB:1233144","61892","GRB","street","Korte Sint Janstraat","","Korte Sint Janstraat","Aalst","9300","117.97","50.93298906343772","4.04379735061581"
"GRB:1112775","61893","GRB","street","Korte Trieststraat","","Korte Trieststraat","Aalst","9300","223.62","50.97097794308645","4.109853382687546"
"GRB:1230775","61894","GRB","street","Korte Zoutstraat","","Korte Zoutstraat","Aalst","9300","155.37","50.93590247230853","4.039223523578898"
"GRB:1198293","61895","GRB","street","Kortenhoekstraat","","Kortenhoekstraat","Aalst","9300","425.85","50.96374731618838","4.014498626870471"
"GRB:1119890","61896","GRB","street","Kortestraat","","Kortestraat","Aalst","9300","140.61","50.91729425965135","4.065351833569978"
"GRB:1111991","61898","GRB","street","Kouterbaan","","Kouterbaan","Aalst","9300","146.26","50.96590755402047","4.067919429081204"
"GRB:1101059","61900","GRB","street","Kraaiwinkelstraat","","Kraaiwinkelstraat","Aalst","9300","244.15","50.914333469344655","4.014198107146402"
"GRB:1160886","61901","GRB","street","Krekelstraat","","Krekelstraat","Aalst","9300","100.97","50.94605203249656","4.057061580344828"
"GRB:1222624","61902","GRB","street","Kreupelveldstraat","","Kreupelveldstraat","Aalst","9300","115.97","50.94177334954979","4.010224898109154"
"GRB:1462997","61903","GRB","street","Kriekenlaan","","Kriekenlaan","Aalst","9300","124.34","50.93901085456983","4.017771737077882"
"GRB:1122732","61904","GRB","street","Kriekstraat","","Kriekstraat","Aalst","9300","161.31","50.93092976185533","4.004293420862729"
"GRB:1123064","61905","GRB","street","Kromme Elleboogstraat","","Kromme Elleboogstraat","Aalst","9300","122.34","50.9185704218523","4.070218632879792"
"GRB:1156536","61906","GRB","street","Kroonstraat","","Kroonstraat","Aalst","9300","116.06","50.94501723854697","4.057650283185858"
"GRB:1180336","61907","GRB","street","Kruisabeelstraat","","Kruisabeelstraat","Aalst","9300","204.31","50.96834016167062","4.086693183853389"
"GRB:1219809","61908","GRB","street","Kruisstraat","","Kruisstraat","Aalst","9300","135.5","50.987842098310544","4.0490908301337285"
"GRB:1160903","61910","GRB","street","Kruisveldstraat","","Kruisveldstraat","Aalst","9300","113.27","50.94577550534673","4.058078641720606"
"GRB:1205166","61911","GRB","street","Kwadesteenstraat","","Kwadesteenstraat","Aalst","9300","242.63","50.92740014697273","4.0158146983276986"
"GRB:1134505","61912","GRB","street","Kwalenhoekstraat","","Kwalenhoekstraat","Aalst","9300","171.83","50.92054674136486","3.984786530641971"
"GRB:1101386","61913","GRB","street","Kwalestraat","","Kwalestraat","Aalst","9300","337.32","50.92721220178951","4.0128961984569145"
"GRB:1111859","61914","GRB","street","Kwezelsweg","","Kwezelsweg","Aalst","9300","157.3","50.961739692724734","4.110258739873613"
"GRB:1139265","61915","GRB","street","Laarstraat","","Laarstraat","Aalst","9300","115.99","50.91886644106154","4.0083321655366255"
"GRB:1219442","61916","GRB","street","Lambrechtstraat","","Lambrechtstraat","Aalst","9300","79.35","50.94185871888226","4.0651901690673355"
"GRB:1223055","61917","GRB","street","Land van Aalststraat","","Land van Aalststraat","Aalst","9300","112.25","50.93933306552386","4.100730280459672"
"GRB:1224776","61918","GRB","street","Landbouwersstraat","","Landbouwersstraat","Aalst","9300","159.84","50.951015087403526","4.045417966786399"
"GRB:1148835","61921","GRB","street","Lange Zoutstraat","","Lange Zoutstraat","Aalst","9300","115.62","50.93689180425957","4.039634999749021"
"GRB:1111233","61922","GRB","street","Langehaagstraat","","Langehaagstraat","Aalst","9300","230.78","50.98087002518937","4.042992516667941"
"GRB:1115897","61923","GRB","street","Langestraat","","Langestraat","Aalst","9300","169.21","50.93925897845389","4.072339759953029"
"GRB:757430","61924","GRB","street","Langeweg","","Langeweg","Aalst","9300","261.57","50.93918476670732","4.146320750185539"
"GRB:1131077","61925","GRB","street","Larewei","","Larewei","Aalst","9300","155.96","50.954466096231386","4.061466279486024"
"GRB:1227848","61926","GRB","street","Lazaretstraat","","Lazaretstraat","Aalst","9300","96.38","50.94540328624461","4.041513946227844"
"GRB:1105960","61927","GRB","street","Ledebaan","","Ledebaan","Aalst","9300","397.28","50.9493315472337","4.0227682054436"
"GRB:1205378","61928","GRB","street","Leeuwerikenlaan","","Leeuwerikenlaan","Aalst","9300","167.66","50.92540675159037","4.071358312604165"
"GRB:1117041","61929","GRB","street","Legeweg","","Legeweg","Aalst","9300","263.37","50.978680173174546","4.046382578731578"
"GRB:1221691","61931","GRB","street","Leo de Béthunelaan","","Leo de Béthunelaan","Aalst","9300","229.9","50.92873218528678","4.033138201599297"
"GRB:1096714","61932","GRB","street","Leopoldlaan","","Leopoldlaan","Aalst","9300","212.68","50.94532386052037","4.051217509685207"
"GRB:1098961","61934","GRB","street","Leuvestraat","","Leuvestraat","Aalst","9300","220.4","50.914231565038406","4.073958071235773"
"GRB:1230960","61935","GRB","street","Liefdadigheidstraat","","Liefdadigheidstraat","Aalst","9300","63.74","50.945264909799526","4.0404312881672615"
"GRB:1187360","61936","GRB","street","Lievevrouwstraat","","Lievevrouwstraat","Aalst","9300","337.07","50.96390107748797","4.112802242012365"
"GRB:1148271","61940","GRB","street","Lindenstraat","","Lindenstraat","Aalst","9300","296.32","50.950138852796485","4.017664471138299"
"GRB:1103574","61941","GRB","street","Lindeveld","","Lindeveld","Aalst","9300","333.99","50.958548479285085","4.028687854685543"
"GRB:1236148","61942","GRB","street","Lindeveldstraat","","Lindeveldstraat","Aalst","9300","442.46","50.958714264200324","4.027445393381262"
"GRB:1112458","61943","GRB","street","Linthout","","Linthout","Aalst","9300","106.32","50.93068143916398","4.0801449487081385"
"GRB:1207289","61944","GRB","street","Lion d'Orweg","","Lion d'Orweg","Aalst","9300","451.42","50.953219432783776","4.039892520680228"
"GRB:1113532","61945","GRB","street","Lochteveldweg","","Lochteveldweg","Aalst","9300","736.33","50.943173747758166","4.133009276695126"
"GRB:1183663","61946","GRB","street","Lokerenveldstraat","","Lokerenveldstraat","Aalst","9300","302.37","50.923694619333425","4.033020812739262"
"GRB:1167000","61947","GRB","street","Louis Paul Boonstraat","","Louis Paul Boonstraat","Aalst","9300","120.24","50.9327119385552","4.042452656367032"
"GRB:1143810","61948","GRB","street","Maaldreef","","Maaldreef","Aalst","9300","171.86","50.930616172246026","3.998251248006977"
"GRB:1196960","61949","GRB","street","Maanstraat","","Maanstraat","Aalst","9300","140.19","50.93381766760312","4.041044923429242"
"GRB:1184876","61950","GRB","street","Maatweg","","Maatweg","Aalst","9300","85.87","50.92545578641015","4.004084390068028"
"GRB:1232783","61951","GRB","street","Majoor Charles Claserstraat","","Majoor Charles Claserstraat","Aalst","9300","112.89","50.9431173334552","4.038055823238713"
"GRB:1172967","61952","GRB","street","Maleveld","","Maleveld","Aalst","9300","180.95","50.935629819620196","4.000703795478727"
"GRB:1184195","61953","GRB","street","Mannaertweg","","Mannaertweg","Aalst","9300","85.54","50.97988691227916","4.051969699770546"
"GRB:1141506","61954","GRB","street","Marktweg","","Marktweg","Aalst","9300","122.48","50.93559792538887","4.027846367489751"
"GRB:1193947","61959","GRB","street","Mechelseweg","","Mechelseweg","Aalst","9300","139.36","50.95667283239049","4.139897079485508"
"GRB:1199727","61960","GRB","street","Meerlaanstraat","","Meerlaanstraat","Aalst","9300","278.04","50.91464468436395","4.075038692902621"
"GRB:1229644","61961","GRB","street","Meersstraat","","Meersstraat","Aalst","9300","234.57","50.98665876908335","4.05485600620567"
"GRB:1215993","61962","GRB","street","Meetersstraat","","Meetersstraat","Aalst","9300","137.78","50.93120930192723","4.131644909598404"
"GRB:1175640","61963","GRB","street","Meirweg","","Meirweg","Aalst","9300","97.41","50.98427282006596","4.05335246962709"
"GRB:1236186","61965","GRB","street","Merestraat","","Merestraat","Aalst","9300","197.03","50.93658056621944","4.01777859813902"
"GRB:1203302","61967","GRB","street","Meuleschettestraat","","Meuleschettestraat","Aalst","9300","138.84","50.94265183875016","4.029245036298828"
"GRB:1135904","61968","GRB","street","Mevrouwenbosweg","","Mevrouwenbosweg","Aalst","9300","94.83","50.96038354925648","4.1194683539018895"
"GRB:1199634","61969","GRB","street","Meysberg","","Meysberg","Aalst","9300","312.26","50.94644396655683","4.144462285135838"
"GRB:1139140","61970","GRB","street","Middenweg","","Middenweg","Aalst","9300","314.5","50.966273286800735","4.0651062899007995"
"GRB:1233153","61971","GRB","street","Mijlbekelaan","","Mijlbekelaan","Aalst","9300","156.8","50.94753428642051","4.0547622633842275"
"GRB:1112724","61973","GRB","street","Mimosastraat","","Mimosastraat","Aalst","9300","241.15","50.989030532963156","4.048756223553006"
"GRB:1235650","61975","GRB","street","Molendreef","","Molendreef","Aalst","9300","176.57","50.937052401335855","4.023422607943978"
"GRB:1184834","61976","GRB","street","Molendries","","Molendries","Aalst","9300","111.93","50.94133966068346","4.044135442712999"
"GRB:1189225","61977","GRB","street","Molenhoekweg","","Molenhoekweg","Aalst","9300","157.55","50.987326402663236","4.0519460690238"
"GRB:1112573","61981","GRB","street","Molenkouterstraat","","Molenkouterstraat","Aalst","9300","258.58","50.95319098690928","4.0306476349705"
"GRB:1184841","61985","GRB","street","Molenstraat","","Molenstraat","Aalst","9300","196.59","50.92195168943362","3.9996400240182073"
"GRB:1140748","61989","GRB","street","Molenstraat-Hoeksken","","Molenstraat-Hoeksken","Aalst","9300","76.77","50.96995688033251","4.041447657835931"
"GRB:1202409","61992","GRB","street","Monnikenhofbaan","","Monnikenhofbaan","Aalst","9300","72.48","50.965578229836694","4.081683384623344"
"GRB:1138140","61993","GRB","street","Moorselbaan","","Moorselbaan","Aalst","9300","303.13","50.94501764075171","4.070987202511999"
"GRB:1214207","61994","GRB","street","Mortelveld","","Mortelveld","Aalst","9300","189.27","50.92031495274407","4.022216212703878"
"GRB:1213472","61995","GRB","street","Mottantstraat","","Mottantstraat","Aalst","9300","316.28","50.9638433428595","4.034679166579787"
"GRB:1192317","61996","GRB","street","Moutstraat","","Moutstraat","Aalst","9300","93.94","50.941429232540486","4.043594726429106"
"GRB:758172","61997","GRB","street","Muntstraat","","Muntstraat","Aalst","9300","292.45","50.98619548402382","4.018046228654674"
"GRB:1173265","61998","GRB","street","Mutsereelstraat","","Mutsereelstraat","Aalst","9300","207.5","50.93700362354867","4.140781312102785"
"GRB:1195699","61999","GRB","street","Naarstigheidstraat","","Naarstigheidstraat","Aalst","9300","165.2","50.94037887109403","4.020706725416827"
"GRB:1116492","62001","GRB","street","Nachtegaalstraat","","Nachtegaalstraat","Aalst","9300","364.6","50.91245668075628","4.0548322083920825"
"GRB:1157123","62002","GRB","street","Nederveldstraat","","Nederveldstraat","Aalst","9300","192.66","50.93808814560947","4.067070800819463"
"GRB:1190841","62003","GRB","street","Negen Dagwand","","Negen Dagwand","Aalst","9300","260.94","50.92885407417243","4.079892437508126"
"GRB:1197135","62004","GRB","street","Nekkerspoel","","Nekkerspoel","Aalst","9300","185.94","50.90429819178499","4.077708276241938"
"GRB:1181789","62005","GRB","street","Nestor de Tièrestraat","","Nestor de Tièrestraat","Aalst","9300","154.36","50.940198760762925","4.0326165244694625"
"GRB:1234032","62006","GRB","street","Nieuwbeekstraat","","Nieuwbeekstraat","Aalst","9300","181.19","50.93454491614899","4.031422553942928"
"GRB:1141067","62007","GRB","street","Nieuwbrugstraat","","Nieuwbrugstraat","Aalst","9300","54.62","50.94600634735774","4.040331483869834"
"GRB:1135633","62008","GRB","street","Nieuwmolenstraat","","Nieuwmolenstraat","Aalst","9300","133.14","50.955252673395634","4.099756480671021"
"GRB:1122806","62011","GRB","street","Nieuwstraat","","Nieuwstraat","Aalst","9300","126.4","50.93830409025392","4.034619648595638"
"GRB:1185507","62012","GRB","street","Nieveldriesweg","","Nieveldriesweg","Aalst","9300","304.5","50.92778062046348","4.121979886467116"
"GRB:1100624","62013","GRB","street","Nievelveldweg","","Nievelveldweg","Aalst","9300","309.4","50.925204984705424","4.1233916070940495"
"GRB:1233615","62014","GRB","street","Nijverheidslaan","","Nijverheidslaan","Aalst","9300","606.74","50.98695164678317","4.039661785350566"
"GRB:1177728","62017","GRB","street","Ninovesteenweg","","Ninovesteenweg","Aalst","9300","508.07","50.91342952372179","4.0489865302397625"
"GRB:1116753","62018","GRB","street","Ninovestraat","","Ninovestraat","Aalst","9300","183.38","50.90865768662","4.027589112686066"
"GRB:1101487","62019","GRB","street","Noenstraat","","Noenstraat","Aalst","9300","222.57","50.9663847533038","4.014946959422707"
"GRB:1143306","62020","GRB","street","Noordstraat","","Noordstraat","Aalst","9300","80.02","50.9530989254673","4.042600523075811"
"GRB:1122424","62021","GRB","street","Olmenstraat","","Olmenstraat","Aalst","9300","203.41","50.912546293786","4.03248472480759"
"GRB:1484930","62022","GRB","street","Onderwijsstraat","","Onderwijsstraat","Aalst","9300","135.24","50.93860702733765","4.042134418167752"
"GRB:1134383","62023","GRB","street","Onegem","","Onegem","Aalst","9300","268.59","50.95321306288951","4.013904794614205"
"GRB:1472504","62024","GRB","street","Onze Lieve Vrouwplein","","Onze Lieve Vrouwplein","Aalst","9300","224.27","50.93977477355072","4.054132392960186"
"GRB:1232034","62025","GRB","street","Onze Lieve Vrouwstraat","","Onze Lieve Vrouwstraat","Aalst","9300","47.73","50.93468483150436","4.0428647250058285"
"GRB:1105811","62026","GRB","street","Opwijkse steenweg","","Opwijkse steenweg","Aalst","9300","226.53","50.946211874509935","4.101473203172807"
"GRB:768874","62027","GRB","street","Opwijkstraat","","Opwijkstraat","Aalst","9300","267.04","50.96234217779053","4.1458447999157615"
"GRB:1107748","62029","GRB","street","Osbroekstraat","","Osbroekstraat","Aalst","9300","286.69","50.9247312529141","4.042512667109161"
"GRB:1132789","62030","GRB","street","Oude Abdijstraat","","Oude Abdijstraat","Aalst","9300","152.71","50.953758446293854","4.068553243871713"
"GRB:1181489","62031","GRB","street","Oude Gentbaan","","Oude Gentbaan","Aalst","9300","410.54","50.94118885171667","4.01259891554546"
"GRB:1122619","62032","GRB","street","Oude Heerbaan","","Oude Heerbaan","Aalst","9300","348.28","50.940714438618585","3.9995619057341485"
"GRB:1150560","62033","GRB","street","Oude Vismarkt","","Oude Vismarkt","Aalst","9300","61.69","50.93788066196838","4.042738309996045"
"GRB:1174521","62034","GRB","street","Ouden Aardeweg","","Ouden Aardeweg","Aalst","9300","155.79","50.92668898495323","4.0685926366553105"
"GRB:1114278","62035","GRB","street","Ouden Dendermondse steenweg","","Ouden Dendermondse steenweg","Aalst","9300","293.73","50.95597147083723","4.056979329640081"
"GRB:1133021","62036","GRB","street","Oudenhofbaan","","Oudenhofbaan","Aalst","9300","448.56","50.96416676951583","4.075473894126287"
"GRB:1433726","62037","GRB","street","Oudstrijdersplein","","Oudstrijdersplein","Aalst","9300","76.42","50.9390082362529","4.034740434174702"
"GRB:1194738","62038","GRB","street","Overbroekstraat","","Overbroekstraat","Aalst","9300","214.2","50.97338750254567","4.030916855875018"
"GRB:1139943","62039","GRB","street","Overhammedreef","","Overhammedreef","Aalst","9300","274.26","50.92995153797756","4.059836813865705"
"GRB:1139943","62040","GRB","street","Overhammekouter","","Overhammekouter","Aalst","9300","274.26","50.92995153797756","4.059836813865705"
"GRB:1194645","62041","GRB","street","Paardendries","","Paardendries","Aalst","9300","142.51","50.94537626450883","4.065127076343132"
"GRB:1202830","62042","GRB","street","Paardeput","","Paardeput","Aalst","9300","104.84","50.92017002155429","4.069557747805989"
"GRB:1179594","62043","GRB","street","Paddenhoek","","Paddenhoek","Aalst","9300","119.15","50.94255175397637","4.010133925764841"
"GRB:1112926","62044","GRB","street","Papestraat","","Papestraat","Aalst","9300","122.76","50.92017755490652","4.00621497591483"
"GRB:1214374","62045","GRB","street","Parijsstraat","","Parijsstraat","Aalst","9300","236.31","50.939749583304256","4.139231047291743"
"GRB:1111321","62046","GRB","street","Park De Blieck","","Park De Blieck","Aalst","9300","86.45","50.952209589921246","4.045483450763405"
"GRB:1115622","62047","GRB","street","Park Terlinden","","Park Terlinden","Aalst","9300","146.01","50.94415021235993","4.01553684130463"
"GRB:1157916","62048","GRB","street","Parklaan","","Parklaan","Aalst","9300","478.74","50.92892589562099","4.038129330961984"
"GRB:1433721","62049","GRB","street","Passage Pieter van Aelst","","Passage Pieter van Aelst","Aalst","9300","92.54","50.938883224095605","4.036972438680469"
"GRB:1157583","62050","GRB","street","Pastoor Lauwereysstraat","","Pastoor Lauwereysstraat","Aalst","9300","73.16","50.93990827913378","4.0516097205819435"
"GRB:773111","62051","GRB","street","Pastorijstraat","","Pastorijstraat","Aalst","9300","139.13","50.921303399141294","4.0063225449498585"
"GRB:1220006","62052","GRB","street","Pater Rasschaertlaan","","Pater Rasschaertlaan","Aalst","9300","238.82","50.91742076725114","4.0760770419213355"
"GRB:1202178","62054","GRB","street","Paternosterstraat","","Paternosterstraat","Aalst","9300","292.67","50.94417170967207","4.002231208646749"
"GRB:1131159","62055","GRB","street","Pennebaan","","Pennebaan","Aalst","9300","348.99","50.95595637400868","4.023895794934658"
"GRB:1507644","62057","GRB","street","Peperstraat","","Peperstraat","Aalst","9300","118.16","50.940120932076304","4.03774767722735"
"GRB:1101935","62058","GRB","street","Perrekouterbaan","","Perrekouterbaan","Aalst","9300","279.19","50.95124487248078","4.111606035853847"
"GRB:1167881","62059","GRB","street","Peter Benoitstraat","","Peter Benoitstraat","Aalst","9300","173.98","50.94508881294122","4.032245829095764"
"GRB:1100320","62060","GRB","street","Petronellaberg","","Petronellaberg","Aalst","9300","289.89","50.94482618458698","4.143880230030026"
"GRB:1201694","62061","GRB","street","Petrus Van Nuffelstraat","","Petrus Van Nuffelstraat","Aalst","9300","126.01","50.94968360869807","4.055992978490685"
"GRB:1108413","62062","GRB","street","Pierre Corneliskaai","","Pierre Corneliskaai","Aalst","9300","425.24","50.94740246226708","4.037944438761786"
"GRB:1194649","62063","GRB","street","Pieter Coeckestraat","","Pieter Coeckestraat","Aalst","9300","115.78","50.94284951778459","4.034349389665365"
"GRB:1150087","62064","GRB","street","Pieter Daensstraat","","Pieter Daensstraat","Aalst","9300","99.63","50.94602391003416","4.047676782755179"
"GRB:1101592","62065","GRB","street","Pijpenbeek","","Pijpenbeek","Aalst","9300","249.71","50.91823946105517","4.0169289455330945"
"GRB:1107411","62067","GRB","street","Ploegstraat","","Ploegstraat","Aalst","9300","152.8","50.96627660439416","4.110725112598101"
"GRB:1200975","62068","GRB","street","Politieke Gevangenenstraat","","Politieke Gevangenenstraat","Aalst","9300","135.63","50.94702966832653","4.047525043755825"
"GRB:1186141","62069","GRB","street","Polydoor De Paepestraat","","Polydoor De Paepestraat","Aalst","9300","107.07","50.94651300057106","4.048627556258231"
"GRB:1194989","62071","GRB","street","Pontstraat","","Pontstraat","Aalst","9300","96.12","50.93544871510301","4.043599656083357"
"GRB:1140486","62072","GRB","street","Pontweg","","Pontweg","Aalst","9300","227.07","50.95832826706207","4.07323453171202"
"GRB:1148102","62073","GRB","street","Popperodedries","","Popperodedries","Aalst","9300","117.43","50.95308019212827","4.0481728831269095"
"GRB:1136544","62075","GRB","street","Populierestraat","","Populierestraat","Aalst","9280","411.75","50.9707107699208","4.090474221913214"
"GRB:1216117","62076","GRB","street","Posthoornstraat","","Posthoornstraat","Aalst","9300","227.61","50.93643774699117","4.026273260524212"
"GRB:1206749","62077","GRB","street","Potaardestraat","","Potaardestraat","Aalst","9300","92.68","50.93217094967831","4.07498338328893"
"GRB:1235625","62078","GRB","street","Priester Daensplein","","Priester Daensplein","Aalst","9300","58.82","50.93751764487745","4.040724983526749"
"GRB:1206529","62079","GRB","street","Prinsenveld","","Prinsenveld","Aalst","9300","90.32","50.951613500336514","4.0466677350628375"
"GRB:1143845","62080","GRB","street","Putbosstraat","","Putbosstraat","Aalst","9300","95.7","50.93289769276915","4.075852060215089"
"GRB:1107158","62081","GRB","street","Putstraat","","Putstraat","Aalst","9300","355.27","50.92817614305185","4.144517825668589"
"GRB:1226124","62082","GRB","street","Putveldweg","","Putveldweg","Aalst","9300","142.55","50.923869372820285","4.138632165930683"
"GRB:1164385","62083","GRB","street","Raffelgemstraat","","Raffelgemstraat","Aalst","9300","125.82","50.9434184927268","4.016478674820884"
"GRB:1142238","62084","GRB","street","Rapenstraat","","Rapenstraat","Aalst","9300","64.16","50.943569757547436","4.0495795040356475"
"GRB:733087","62085","GRB","street","Ravenakkerstraat","","Ravenakkerstraat","Aalst","9300","233.56","50.95967126068704","4.111952191777004"
"GRB:1152243","62086","GRB","street","Rederijkersplein","","Rederijkersplein","Aalst","9300","53.69","50.95306256217044","4.045163057717435"
"GRB:1149515","62087","GRB","street","Regelsbruggestraat","","Regelsbruggestraat","Aalst","9300","251.89","50.93679402062642","4.025257245777103"
"GRB:1183666","62088","GRB","street","Reinaertdreef","","Reinaertdreef","Aalst","9300","90.47","50.94337504283735","4.001133533619848"
"GRB:1169171","62089","GRB","street","Rerum Novarumstraat","","Rerum Novarumstraat","Aalst","9300","162.28","50.92892121358287","4.069801427243707"
"GRB:1106338","62090","GRB","street","Resschebeke","","Resschebeke","Aalst","9300","287.65","50.90726086267529","4.072970166653384"
"GRB:1198579","62091","GRB","street","Restert","","Restert","Aalst","9300","238.15","50.92109112492646","4.015123574324637"
"GRB:1180952","62092","GRB","street","Reutelaarstraat","","Reutelaarstraat","Aalst","9300","123.51","50.96785721653553","4.020122233082582"
"GRB:1196965","62093","GRB","street","Rietstraat","","Rietstraat","Aalst","9300","112.43","50.919350621908784","4.0756405218683485"
"GRB:1113463","62094","GRB","street","Rijdentstraat","","Rijdentstraat","Aalst","9300","261.23","50.92470399211498","3.998455698575492"
"GRB:1098880","62095","GRB","street","Rijgerstraat","","Rijgerstraat","Aalst","9300","358.88","50.95026389502853","4.0853292952661056"
"GRB:1205120","62096","GRB","street","Roeveld","","Roeveld","Aalst","9300","150.57","50.91489127053514","4.083788083442012"
"GRB:1514277","62097","GRB","street","Roklijf","","Roklijf","Aalst","9300","146.07","50.94067065607714","4.017714407767379"
"GRB:1163161","62098","GRB","street","Romeinse Weg","","Romeinse Weg","Aalst","9300","291.32","50.91358333330211","4.088411166914544"
"GRB:1462986","62099","GRB","street","Romeleinweg","","Romeleinweg","Aalst","9300","114.72","50.94995535756584","4.107440161634954"
"GRB:1227796","62101","GRB","street","Ronsevaaldreef","","Ronsevaaldreef","Aalst","9300","116.7","50.923971899277376","4.066251696054559"
"GRB:1235491","62102","GRB","street","Ronsevaalstraat","","Ronsevaalstraat","Aalst","9300","263.13","50.92221396142071","4.066956231357119"
"GRB:1095647","62104","GRB","street","Rooms-Hofstraat","","Rooms-Hofstraat","Aalst","9300","308.25","50.92495485288933","4.0506419491811565"
"GRB:1189902","62105","GRB","street","Royenbosweg","","Royenbosweg","Aalst","9300","99.67","50.96122897381169","4.1196694048926155"
"GRB:1148552","62107","GRB","street","Rozemarijnstraat","","Rozemarijnstraat","Aalst","9300","89.14","50.93849608463566","4.0404998761069475"
"GRB:1186598","62108","GRB","street","Rozendreef","","Rozendreef","Aalst","9300","350.84","50.95166524973207","4.074437364866186"
"GRB:1193442","62109","GRB","street","Rozenstraat","","Rozenstraat","Aalst","9300","139.9","50.953866861090354","4.028951180141342"
"GRB:1192842","62110","GRB","street","Rozenweg","","Rozenweg","Aalst","9300","132.55","50.946917420741755","4.055199842185412"
"GRB:1222894","62112","GRB","street","Rustoordstraat","","Rustoordstraat","Aalst","9300","39.84","50.941996601194006","4.0631885600633035"
"GRB:1218599","62114","GRB","street","Schabbekensstraat","","Schabbekensstraat","Aalst","9300","105.4","50.95617752439384","4.062780537499419"
"GRB:1211137","62115","GRB","street","Schendelbeekhofstraat","","Schendelbeekhofstraat","Aalst","9300","104.99","50.94268438497691","4.057811794905475"
"GRB:1148530","62116","GRB","street","Scherrestraat","","Scherrestraat","Aalst","9300","186.75","50.91773624072864","4.070256213366175"
"GRB:1202426","62117","GRB","street","Scherreveldstraat","","Scherreveldstraat","Aalst","9300","144.59","50.9334266891024","4.042773460373446"
"GRB:1230009","62118","GRB","street","Schietbaan","","Schietbaan","Aalst","9300","103.62","50.92777640021709","4.06873030211098"
"GRB:1132057","62123","GRB","street","Schroverstraat","","Schroverstraat","Aalst","9300","306.58","50.97402327693093","4.080284685491392"
"GRB:1187708","62124","GRB","street","Schuttersstraat","","Schuttersstraat","Aalst","9300","67.73","50.944531875361946","4.0408162287602405"
"GRB:1131078","62125","GRB","street","Schuurken","","Schuurken","Aalst","9300","379.16","50.968450951013416","4.123597258713144"
"GRB:1174976","62126","GRB","street","Siesegemlaan","","Siesegemlaan","Aalst","9300","659.28","50.927478877579084","4.02016283010443"
"GRB:1138971","62128","GRB","street","Sint Janstraat","","Sint Janstraat","Aalst","9300","71.5","50.934011077790245","4.043337218244971"
"GRB:1492251","62129","GRB","street","Sint Jobstraat","","Sint Jobstraat","Aalst","9300","162.31","50.9315702941077","4.0277109236398605"
"GRB:1113887","62130","GRB","street","Sint Jorisstraat","","Sint Jorisstraat","Aalst","9300","126.19","50.937303323389884","4.0385527791561096"
"GRB:1191625","62131","GRB","street","Sint Jozefstraat","","Sint Jozefstraat","Aalst","9300","177.12","50.94100195119942","4.032963927706279"
"GRB:1122770","62132","GRB","street","Sint Kamielstraat","","Sint Kamielstraat","Aalst","9300","180.05","50.933421258508474","4.039649133200153"
"GRB:1173576","62133","GRB","street","Sint Martensplein","","Sint Martensplein","Aalst","9300","71.27","50.93766717254723","4.041433444042261"
"GRB:1164391","62134","GRB","street","Sint Ursmaarstraat","","Sint Ursmaarstraat","Aalst","9300","130.58","50.94966581295953","4.0572174156622385"
"GRB:1222527","62135","GRB","street","Sint Vincentiusstraat","","Sint Vincentiusstraat","Aalst","9300","151.37","50.94238859639749","4.050486054836376"
"GRB:1116494","62136","GRB","street","Sint-Amandstraat","","Sint-Amandstraat","Aalst","9300","207.25","50.912749123628814","4.072447243789984"
"GRB:1214975","62138","GRB","street","Sinte Annalaan","","Sinte Annalaan","Aalst","9300","132.5","50.94258628920241","4.028303075171265"
"GRB:1161275","62139","GRB","street","Sinte Apoloniastraat","","Sinte Apoloniastraat","Aalst","9300","339.73","50.94670066561813","4.013364628918632"
"GRB:1181959","62140","GRB","street","Sinte Gudulastraat","","Sinte Gudulastraat","Aalst","9300","190.73","50.94523134204669","4.046860369301736"
"GRB:1139377","62141","GRB","street","Sinte-Barbarastraat","","Sinte-Barbarastraat","Aalst","9300","112.44","50.95593014151497","4.060671662617246"
"GRB:1167979","62142","GRB","street","Sint-Hubertusstraat","","Sint-Hubertusstraat","Aalst","9300","96.42","50.95610352313552","4.06370447932699"
"GRB:1212724","62143","GRB","street","Slotstraat","","Slotstraat","Aalst","9300","201.89","50.942751690692816","4.049088380536445"
"GRB:1176201","62144","GRB","street","Sluierstraat","","Sluierstraat","Aalst","9300","77.3","50.937627459339105","4.039916474917831"
"GRB:1163296","62145","GRB","street","Snoekstraat","","Snoekstraat","Aalst","9300","118.3","50.93226870387797","4.073997236450756"
"GRB:1184303","62146","GRB","street","Spaarzaamheidstraat","","Spaarzaamheidstraat","Aalst","9300","133.66","50.94122223380518","4.0216893129602145"
"GRB:1116124","62147","GRB","street","Sparrenlaan","","Sparrenlaan","Aalst","9300","161.37","50.91570579211152","4.027392659304947"
"GRB:1433597","62148","GRB","street","Spinnerstraat","","Spinnerstraat","Aalst","9300","90.05","50.948813010282066","4.031459319581786"
"GRB:1433618","62149","GRB","street","Spoelstraat","","Spoelstraat","Aalst","9300","124.92","50.94729891670796","4.052332596071418"
"GRB:1124628","62150","GRB","street","Spoorstraat","","Spoorstraat","Aalst","9300","194.46","50.962284625853925","4.130590220799419"
"GRB:1175593","62151","GRB","street","Spoorwegstraat","","Spoorwegstraat","Aalst","9300","90.04","50.98833220074113","4.0437010993131794"
"GRB:1118513","62152","GRB","street","Spruithoekstraat","","Spruithoekstraat","Aalst","9300","525.24","50.95462876271011","4.12185371258532"
"GRB:1109075","62153","GRB","street","Spuimeersenweg","","Spuimeersenweg","Aalst","9300","325.8","50.96976566863905","4.048093401971057"
"GRB:1476689","62154","GRB","street","Square Jacques Geerinckx","","Square Jacques Geerinckx","Aalst","9300","49.01","50.94125354137835","4.0156449561032375"
"GRB:1111125","62156","GRB","street","St. Rochusstraat","","St. Rochusstraat","Aalst","9300","99.74","50.91711331964073","4.001725026954595"
"GRB:1227196","62159","GRB","street","Statieplein","","Statieplein","Aalst","9300","64.5","50.94256655915709","4.039031362684834"
"GRB:1148406","62163","GRB","street","Stationsstraat","","Stationsstraat","Aalst","9300","206.45","50.94177397203983","4.037679253370839"
"GRB:1173791","62164","GRB","street","Stationweg","","Stationweg","Aalst","9300","342.08","50.916756047471274","3.9912904793235233"
"GRB:1165633","62166","GRB","street","Steenbergstraat","","Steenbergstraat","Aalst","9300","99.06","50.96363807869593","4.025132779738054"
"GRB:1209884","62167","GRB","street","Steenland","","Steenland","Aalst","9300","112.16","50.935432037315586","4.070187155434424"
"GRB:1117518","62170","GRB","street","Steenstraat","","Steenstraat","Aalst","9300","155.5","50.94020372931161","4.027187668556843"
"GRB:1433643","62171","GRB","street","Steenweg op Aalst","","Steenweg op Aalst","Aalst","9300","443.06","50.9725584070511","4.042382700284173"
"GRB:1219991","62174","GRB","street","Steenweg op Dendermonde","","Steenweg op Dendermonde","Aalst","9300","740.4","50.95321412393865","4.030540405031865"
"GRB:1142442","62175","GRB","street","Stefaan De Jonghestraat","","Stefaan De Jonghestraat","Aalst","9300","264.84","50.932219249601935","4.034501954130162"
"GRB:1167617","62176","GRB","street","Sterrebosstraat","","Sterrebosstraat","Aalst","9300","126.54","50.91922030962625","4.012913490956971"
"GRB:1116566","62178","GRB","street","Stevensveldstraat","","Stevensveldstraat","Aalst","9300","161.34","50.934857801464155","4.136062058366487"
"GRB:1192714","62179","GRB","street","Stijn Streuvelsstraat","","Stijn Streuvelsstraat","Aalst","9300","75.53","50.91922097622738","4.077209399933222"
"GRB:1108077","62180","GRB","street","Stillebreek","","Stillebreek","Aalst","9300","367.72","50.908823089305365","4.0728149932812014"
"GRB:1112039","62181","GRB","street","Stoofstraat","","Stoofstraat","Aalst","9300","132.83","50.93747867041136","4.042161837762328"
"GRB:1093599","62182","GRB","street","Strekstraat","","Strekstraat","Aalst","9300","387.15","50.923787005209185","3.9920179333316352"
"GRB:1161491","62183","GRB","street","Sylvain Van Der Guchtlaan","","Sylvain Van Der Guchtlaan","Aalst","9300","216.96","50.94189939748148","4.014253844760174"
"GRB:1124399","62184","GRB","street","'t Klein Eeckhout","","'t Klein Eeckhout","Aalst","9300","268.16","50.94148242612913","4.064999234013708"
"GRB:1526395","62185","GRB","street","'t Maegelijnplein","","'t Maegelijnplein","Aalst","9300","42.22","50.93942490992978","4.037205619761011"
"GRB:1124504","62186","GRB","street","Teerlingveldstraat","","Teerlingveldstraat","Aalst","9300","230.32","50.92222569541806","3.9924563949427423"
"GRB:1161932","62187","GRB","street","Ten Berg","","Ten Berg","Aalst","9300","88.5","50.93544668007464","4.064262600569811"
"GRB:1127417","62188","GRB","street","Ten Bos","","Ten Bos","Aalst","9300","268.13","50.90763989307109","4.086235458799062"
"GRB:1136929","62190","GRB","street","Terbekenstraat","","Terbekenstraat","Aalst","9300","315.05","50.92637071278814","4.004161921623332"
"GRB:1113493","62191","GRB","street","Terhagenstraat","","Terhagenstraat","Aalst","9300","314.02","50.96300791467913","4.118168298818217"
"GRB:1190786","62193","GRB","street","Terlindenstraat","","Terlindenstraat","Aalst","9300","128.29","50.94258427851799","4.017851794123706"
"GRB:1193578","62194","GRB","street","Termurenlaan","","Termurenlaan","Aalst","9300","229","50.921230502904436","4.056815380879871"
"GRB:1107838","62195","GRB","street","Tiende Vrijstraat","","Tiende Vrijstraat","Aalst","9300","174.46","50.94904508608121","4.066199105340369"
"GRB:1136766","62196","GRB","street","Tindeweg","","Tindeweg","Aalst","9300","96.87","50.93945500085622","4.095412165592609"
"GRB:1219432","62197","GRB","street","Tinnenhoekstraat","","Tinnenhoekstraat","Aalst","9300","349.65","50.969562615148455","4.105987851043428"
"GRB:1140159","62198","GRB","street","Torenstraat","","Torenstraat","Aalst","9300","138.71","50.94890195309459","4.139101868053817"
"GRB:1219261","62199","GRB","street","Torensveld","","Torensveld","Aalst","9300","144.35","50.95937934579439","4.024498841763641"
"GRB:1156173","62202","GRB","street","Tramstraat","","Tramstraat","Aalst","9300","92.26","50.94552891390621","4.040116391534494"
"GRB:1132031","62203","GRB","street","Trieststraat","","Trieststraat","Aalst","9280","350.98","50.97235644713583","4.109059337745254"
"GRB:1194794","62204","GRB","street","Truyenbosstraat","","Truyenbosstraat","Aalst","9300","238.36","50.94533250559404","4.112788332526964"
"GRB:1142716","62205","GRB","street","Truyenbosweg","","Truyenbosweg","Aalst","9300","98.65","50.9460689062551","4.1094924098918915"
"GRB:1103722","62206","GRB","street","Tulpstraat","","Tulpstraat","Aalst","9300","133.39","50.948307419400955","4.045180450924576"
"GRB:1195608","62208","GRB","street","Twee Hagenstraat","","Twee Hagenstraat","Aalst","9300","127.34","50.94487026688083","4.05034159535727"
"GRB:1223140","62209","GRB","street","Twijnderstraat","","Twijnderstraat","Aalst","9300","91.49","50.9495697595208","4.031514594266502"
"GRB:1134306","62210","GRB","street","Vaartstraat","","Vaartstraat","Aalst","9300","163.21","50.940802473684755","4.041180760309048"
"GRB:1118968","62211","GRB","street","Vakschoolstraat","","Vakschoolstraat","Aalst","9300","199.53","50.94077116438649","4.028128535561833"
"GRB:1154495","62212","GRB","street","Valerius De Saedeleerstraat","","Valerius De Saedeleerstraat","Aalst","9300","152.47","50.94467159960598","4.032790166714376"
"GRB:1113743","62213","GRB","street","Van de Vijverstraat","","Van de Vijverstraat","Aalst","9300","162.8","50.9221198676081","4.065339161968124"
"GRB:1137041","62215","GRB","street","Van der Nootstraat","","Van der Nootstraat","Aalst","9300","246.3","50.95865577564641","4.107755463391963"
"GRB:1209995","62216","GRB","street","Van Geemstraatje","","Van Geemstraatje","Aalst","9300","90.19","50.94412937258384","4.036138288966517"
"GRB:1209291","62217","GRB","street","Van Langenhovestraat","","Van Langenhovestraat","Aalst","9300","74.31","50.93431166806855","4.044817543753147"
"GRB:1433604","62218","GRB","street","Van Wambekekaai","","Van Wambekekaai","Aalst","9300","46.72","50.93996543403389","4.043206138056568"
"GRB:1113328","62219","GRB","street","Varenlaan","","Varenlaan","Aalst","9300","257.61","50.94637435355708","4.031652075219565"
"GRB:1108414","62220","GRB","street","Varent","","Varent","Aalst","9300","267.62","50.90985318727866","4.074986218600374"
"GRB:1187358","62221","GRB","street","Varentweg","","Varentweg","Aalst","9300","101.89","50.9635654555171","4.115290937491806"
"GRB:1163634","62222","GRB","street","Varkensmarkt","","Varkensmarkt","Aalst","9300","48.34","50.94182399641161","4.044074344005434"
"GRB:1181434","62223","GRB","street","Veldeken","","Veldeken","Aalst","9300","159.43","50.95995556016043","4.139313744230187"
"GRB:1180411","62225","GRB","street","Veldstraat","","Veldstraat","Aalst","9300","93","50.94257324783917","4.0356842340011"
"GRB:1130534","62227","GRB","street","Vennestraat","","Vennestraat","Aalst","9300","137.44","50.914551143295185","4.0369095409036975"
"GRB:1133179","62228","GRB","street","Verastenstraat","","Verastenstraat","Aalst","9300","130.93","50.93947794742658","4.026286182032047"
"GRB:1113042","62229","GRB","street","Verbindingsstraat","","Verbindingsstraat","Aalst","9300","249.9","50.91790520140229","4.048159978445882"
"GRB:1114078","62230","GRB","street","Verbrandhofstraat","","Verbrandhofstraat","Aalst","9300","172.12","50.95086724586154","4.041296003971795"
"GRB:1205552","62232","GRB","street","Verenigde Natiesstraat","","Verenigde Natiesstraat","Aalst","9300","203.39","50.92468896788733","4.013318798742868"
"GRB:1094876","62234","GRB","street","Victor Bocquéstraat","","Victor Bocquéstraat","Aalst","9300","509.34","50.95245038813694","4.037929131566341"
"GRB:1192387","62235","GRB","street","Vijverstraat","","Vijverstraat","Aalst","9300","147.35","50.95978004568453","4.023328709859333"
"GRB:1118586","62237","GRB","street","Vilainstraat","","Vilainstraat","Aalst","9300","245.38","50.94547147884759","4.028750271845548"
"GRB:1217704","62238","GRB","street","Villalaan","","Villalaan","Aalst","9300","214","50.92138776976989","4.034601458658111"
"GRB:1115949","62239","GRB","street","Vinkenlaan","","Vinkenlaan","Aalst","9300","217.89","50.91781081452531","4.083249355254946"
"GRB:1137545","62240","GRB","street","Violettestraat","","Violettestraat","Aalst","9300","87.3","50.94345918423767","4.043876979120797"
"GRB:1526366","62241","GRB","street","Vlaanderenstraat","","Vlaanderenstraat","Aalst","9300","123.04","50.93797628758546","4.03241846242469"
"GRB:762423","62242","GRB","street","Vlieguitweg","","Vlieguitweg","Aalst","9300","210.88","50.96117798534935","4.072190720016977"
"GRB:1147039","62243","GRB","street","Vogelenzang","","Vogelenzang","Aalst","9300","113.28","50.922213070856564","4.0820665472701885"
"GRB:1119448","62244","GRB","street","Voldersstraat","","Voldersstraat","Aalst","9300","80.38","50.936988638573986","4.043215367668627"
"GRB:1169752","62245","GRB","street","Volksplaats","","Volksplaats","Aalst","9300","107.55","50.94005704144781","4.023274120601574"
"GRB:1235049","62246","GRB","street","Volksverheffingstraat","","Volksverheffingstraat","Aalst","9300","156.66","50.94211176428728","4.024323259701752"
"GRB:1199726","62247","GRB","street","Vooruitgangstraat","","Vooruitgangstraat","Aalst","9300","89.91","50.94256724142499","4.037761802991486"
"GRB:1186123","62248","GRB","street","Vooruitzichtstraat","","Vooruitzichtstraat","Aalst","9300","121.18","50.94138765141719","4.024209733842529"
"GRB:1433614","62249","GRB","street","Vosholleweg","","Vosholleweg","Aalst","9300","140.36","50.918010886402136","4.074625427484844"
"GRB:1463010","62250","GRB","street","Vredeplein","","Vredeplein","Aalst","9300","118.02","50.93863343612665","4.033705360521026"
"GRB:1195712","62251","GRB","street","Vredestraat","","Vredestraat","Aalst","9300","100.05","50.91877292713938","4.056835107018393"
"GRB:1174109","62253","GRB","street","Vrijheidstraat","","Vrijheidstraat","Aalst","9300","153.31","50.94050856158544","4.0350260661280295"
"GRB:1157128","62254","GRB","street","Vulcainstraat","","Vulcainstraat","Aalst","9300","61.13","50.9450610908075","4.027218973725968"
"GRB:1139720","62256","GRB","street","Wagenstraat","","Wagenstraat","Aalst","9300","64.24","50.945042191327055","4.0010023273995525"
"GRB:1148282","62257","GRB","street","Walstraat","","Walstraat","Aalst","9300","81.6","50.93990030438953","4.0453655614695005"
"GRB:1094763","62258","GRB","street","Wateringen","","Wateringen","Aalst","9300","97.8","50.94462609584488","4.01356650254535"
"GRB:1135472","62260","GRB","street","Watermolenstraat","","Watermolenstraat","Aalst","9300","178.14","50.90825384575107","4.047097073560458"
"GRB:1099490","62261","GRB","street","Waterstraat","","Waterstraat","Aalst","9300","272.89","50.98642911924542","4.033561688565966"
"GRB:1227283","62262","GRB","street","Watertorenstraat","","Watertorenstraat","Aalst","9300","130.4","50.93223320542205","4.03937905145714"
"GRB:1139323","62264","GRB","street","Waverstraat","","Waverstraat","Aalst","9300","298.24","50.93455742396473","4.10113749000887"
"GRB:1138510","62266","GRB","street","Weggevoerdenstraat","","Weggevoerdenstraat","Aalst","9300","143.35","50.93892984359553","4.029967295966815"
"GRB:1172910","62268","GRB","street","Weidestraat","","Weidestraat","Aalst","9300","82.67","50.91966591378968","4.052461927704577"
"GRB:1146325","62269","GRB","street","Wellekensstraat","","Wellekensstraat","Aalst","9300","98.64","50.94269489421987","4.031394219461512"
"GRB:1093877","62270","GRB","street","Welleweg","","Welleweg","Aalst","9300","894.32","50.914319747817416","4.05080282073587"
"GRB:1236459","62271","GRB","street","Welvaartstraat","","Welvaartstraat","Aalst","9300","167.22","50.94270380343325","4.02314126742444"
"GRB:1433602","62272","GRB","street","Werf","","Werf","Aalst","9300","11.03","50.94074734419416","4.042374463308999"
"GRB:1230996","62273","GRB","street","Weverijstraat","","Weverijstraat","Aalst","9300","140.78","50.94823068517589","4.041473787905111"
"GRB:775168","62274","GRB","street","Weversweg","","Weversweg","Aalst","9300","352.16","50.95029488926781","4.093474153737686"
"GRB:1123582","62275","GRB","street","Weyvelt","","Weyvelt","Aalst","9300","90.95","50.96209620257558","4.032424068990518"
"GRB:1153338","62276","GRB","street","Wijngaardstraat","","Wijngaardstraat","Aalst","9300","294.49","50.94007485703685","4.062384689141913"
"GRB:1174518","62277","GRB","street","Wijngaardveld","","Wijngaardveld","Aalst","9300","570.23","50.96225167143598","4.052749313944493"
"GRB:1134283","62278","GRB","street","Wilgstraat","","Wilgstraat","Aalst","9300","94.3","50.91810096891021","4.056818308948347"
"GRB:1215652","62279","GRB","street","Windmolenstraat","","Windmolenstraat","Aalst","9300","111.5","50.93480084651689","4.041255322678919"
"GRB:1169012","62280","GRB","street","Winningstraat","","Winningstraat","Aalst","9300","140.59","50.95899845441817","4.134931265479867"
"GRB:1205653","62281","GRB","street","Witgerstraat","","Witgerstraat","Aalst","9300","308.64","50.97000577329803","4.071410654398306"
"GRB:1207831","62282","GRB","street","Withuisstraat","","Withuisstraat","Aalst","9300","113.49","50.93733976205279","4.0316078424549895"
"GRB:1181146","62283","GRB","street","Wolvenveld","","Wolvenveld","Aalst","9300","85.5","50.952807138949815","4.0445862370638705"
"GRB:1094566","62285","GRB","street","Wortelland","","Wortelland","Aalst","9300","125.99","50.934402583782834","4.068875155171133"
"GRB:1129257","62287","GRB","street","Zakstraat","","Zakstraat","Aalst","9300","239.98","50.97389249032515","4.028880092681456"
"GRB:1210757","62288","GRB","street","Zandbeekweg","","Zandbeekweg","Aalst","9300","149.48","50.94055949189897","4.090609430654384"
"GRB:1115580","62289","GRB","street","Zandberg","","Zandberg","Aalst","9300","119.43","50.93572125770469","4.080299746573597"
"GRB:1196751","62290","GRB","street","Zavelbaan","","Zavelbaan","Aalst","9300","156.65","50.94943496049502","4.049829118303086"
"GRB:1433760","62291","GRB","street","Zavelput","","Zavelput","Aalst","9300","58.08","50.93317213577872","4.036176150220874"
"GRB:1142838","62293","GRB","street","Zeebergkaai","","Zeebergkaai","Aalst","9300","111.06","50.93438781923258","4.0480450017868455"
"GRB:1214077","62294","GRB","street","Zeeldraaierstraat","","Zeeldraaierstraat","Aalst","9300","284.74","50.93756685043016","4.000159441306651"
"GRB:1170530","62295","GRB","street","Zegepraalstraat","","Zegepraalstraat","Aalst","9300","83.51","50.943686751182256","4.041687469038503"
"GRB:764715","62296","GRB","street","Zekensweg","","Zekensweg","Aalst","9300","90.84","50.94128863738766","4.097171269020593"
"GRB:1469902","62297","GRB","street","Zesbunderstraat","","Zesbunderstraat","Aalst","9300","79.69","50.95066627193194","4.066639281586669"
"GRB:1133322","62298","GRB","street","Zijpbeekstraat","","Zijpbeekstraat","Aalst","9300","111.48","50.95131480206426","4.027366679947448"
"GRB:1096046","62299","GRB","street","Zijpstraat","","Zijpstraat","Aalst","9300","327.39","50.97373672662775","4.015322164832903"
"GRB:1134572","62300","GRB","street","Zonnestraat","","Zonnestraat","Aalst","9300","129.79","50.935021494758885","4.039150943906955"
"GRB:1112770","62301","GRB","street","Zuremeersweg","","Zuremeersweg","Aalst","9300","356.68","50.94860767477432","4.131411946755554"
"GRB:1134118","62302","GRB","street","Zurendries","","Zurendries","Aalst","9300","284.11","50.92856463252796","4.018226387599605"
"GRB:1114295","62303","GRB","street","Zwalmkouter","","Zwalmkouter","Aalst","9300","317.9","50.91413444366023","4.0571892790554465"
"GRB:1107080","62304","GRB","street","Zwanenneststraat","","Zwanenneststraat","Aalst","9300","361.55","50.95344325684414","4.133505574163757"
"GRB:1126083","62305","GRB","street","Zwaneveldweg","","Zwaneveldweg","Aalst","9300","287.57","50.93264776966633","4.141314948775044"
"GRB:1123317","62306","GRB","street","Zwartstraat","","Zwartstraat","Aalst","9300","42.43","50.962171891439226","4.0932072756948035"
"GRB:1123335","62307","GRB","street","Zwembadlaan","","Zwembadlaan","Aalst","9300","256.67","50.938409143886076","4.059407926118967"
"GRB:1507587","62376","GRB","street","Ijzerenwegstraat","","Ijzerenwegstraat","Denderleeuw","9470","58.01","50.904575634063455","4.0416723317158265"
"GRB:1119395","62464","GRB","street","Steenweg","","Steenweg","Denderleeuw","9470","288.93","50.90754095379188","4.053882246501368"
"GRB:1179860","62932","GRB","street","Kraaiwinkel","","Kraaiwinkel","Haaltert","9450","138.25","50.91170340189015","4.003371539782881"
"GRB:1156400","62953","GRB","street","Muisstraat","","Muisstraat","Haaltert","9450","181.86","50.90887362159813","4.016705407404468"
"GRB:1172090","62957","GRB","street","Ninovestraat","","Ninovestraat","Haaltert","9450","94.39","50.90604914912358","4.02695840421029"
"GRB:1126979","63199","GRB","street","Bresillestraat","","Bresillestraat","Lede","9340","479.92","50.97239991978112","4.009834085420161"
"GRB:1234100","63298","GRB","street","Noenstraat","","Noenstraat","Lede","9340","629.4","50.96917052991626","4.009712521551233"
"GRB:1134351","63360","GRB","street","Vogelenzang","","Vogelenzang","Lede","9340","128.71","50.97864946050377","4.015840571474116"
"GRB:1138875","64414","GRB","street","Daalbroek","","Daalbroek","Erpe-Mere","9420","62.35","50.92016194260307","3.9832645913168214"
"GRB:1153381","64432","GRB","street","Ediksveldestraat","","Ediksveldestraat","Erpe-Mere","9420","139.39","50.92396650625237","3.985079109736052"
"GRB:1472567","64448","GRB","street","Gentsesteenweg","","Gentsesteenweg","Erpe-Mere","9420","156.31","50.9422451857812","3.9951724115731735"
"GRB:1131664","64462","GRB","street","Grote Zadelweg","","Grote Zadelweg","Erpe-Mere","9420","41.85","50.93514523833888","3.9917318614558996"
"GRB:1148494","64481","GRB","street","Honegemstraat","","Honegemstraat","Erpe-Mere","9420","102.79","50.94532498461019","4.000117887517047"
"GRB:1116203","64558","GRB","street","Merestraat","","Merestraat","Erpe-Mere","9420","188.53","50.92955586592684","3.9914982094868017"
"GRB:1119051","64562","GRB","street","Neerveldstraat","","Neerveldstraat","Erpe-Mere","9300","180.82","50.94573691019451","4.002345933563047"
"GRB:1110497","64575","GRB","street","Oude Heerbaan","","Oude Heerbaan","Erpe-Mere","9420","238.44","50.939425223446754","3.9979502645642966"
"GRB:1131964","64638","GRB","street","Zeeldraaierstraat","","Zeeldraaierstraat","Erpe-Mere","9420","137.61","50.939018151227906","3.9998573477207766"
"GRB:730317","64640","GRB","street","Zijpwegel","","Zijpwegel","Erpe-Mere","9300","135.46","50.944193976419285","3.9992079716362148"
"GRB:1130882","65213","GRB","street","Korte Kasteelstraat","","Korte Kasteelstraat","Dendermonde","9200","140.62","50.99381030814477","4.041230844860197"
"GRB:1205016","65828","GRB","street","Baardegemsestraat","","Baardegemsestraat","Lebbeke","9280","269.5","50.97286816428194","4.1293298791657875"
"GRB:1200177","65844","GRB","street","Bontegem","","Bontegem","Lebbeke","9280","117.86","50.97388929319379","4.103161420378098"
"GRB:1132061","65922","GRB","street","Kruisabeel","","Kruisabeel","Lebbeke","9280","177.54","50.972188662802566","4.082133956971758"
"GRB:1131220","65929","GRB","street","Langeroot","","Langeroot","Lebbeke","9280","146.12","50.96770607587184","4.121369611140758"
"GRB:1136544","65957","GRB","street","Populierenstraat","","Populierenstraat","Lebbeke","9280","411.75","50.9707107699208","4.090474221913214"
"GRB:1164474","65966","GRB","street","Sasbaan","","Sasbaan","Lebbeke","9280","263.01","50.982521147368026","4.075630883444993"
"GRB:1132057","65968","GRB","street","Schrovestraat","","Schrovestraat","Lebbeke","9300","306.58","50.97402327693093","4.080284685491392"
"GRB:1218156","65969","GRB","street","Schuurkensstraat","","Schuurkensstraat","Lebbeke","9280","111.26","50.972649059029806","4.126010673255908"
"GRB:1132031","65978","GRB","street","Trieststraat","","Trieststraat","Lebbeke","9280","350.98","50.97235644713583","4.109059337745254"
"GRB:1106246","141881","GRB","street","Doorsteeklaan","","Doorsteeklaan","Aalst","9300","1333.75","50.967074957404535","4.048324591008805"
"GRB:1109105","141882","GRB","street","Eerste Bochtweg","","Eerste Bochtweg","Aalst","9300","201.54","50.984471175280966","4.059341940717132"
"GRB:1137581","141888","GRB","street","Spechtmeersstraat","","Spechtmeersstraat","Aalst","9300","301.75","50.91736908108526","3.9950577354497914"
"GRB:1208656","143478","GRB","street","Treinstraat","","Treinstraat","Aalst","9300","180.85","50.940525155141536","4.044882363674837"
"GRB:1108030","143479","GRB","street","'t Spieken","","'t Spieken","Aalst","9300","225.67","50.95570060472622","4.065910101810796"
"GRB:1190962","143480","GRB","street","Zwarte Zustersstraat","","Zwarte Zustersstraat","Aalst","9300","115.89","50.939375881757165","4.040024293170033"
"GRB:1143808","143481","GRB","street","Paddenvijverstraat","","Paddenvijverstraat","Aalst","9300","141.86","50.949375849977145","4.082124407213808"
"GRB:1215527","143482","GRB","street","Sluisken","","Sluisken","Aalst","9300","81.39","50.93447830510061","4.02441088689785"
"GRB:1433758","143483","GRB","street","Sterherenstraat","","Sterherenstraat","Aalst","9300","58.73","50.93526073146721","4.0443165893914035"
"GRB:1115061","143484","GRB","street","Marcel De Bisschopstraat","","Marcel De Bisschopstraat","Aalst","9300","461.96","50.923428414022254","4.031166322480488"
"GRB:1182930","143485","GRB","street","Nedersteenberg","","Nedersteenberg","Aalst","9300","158.56","50.94812335056589","4.04879304948358"
"GRB:745861","143486","GRB","street","Oude Watermolen","","Oude Watermolen","Aalst","9300","100.96","50.94339090061017","4.0617036718520865"
"GRB:1112177","143487","GRB","street","Losweg","","Losweg","Aalst","9300","236.89","50.959496095537546","4.051094535809337"
"GRB:1117613","143488","GRB","street","Louis Camustraat","","Louis Camustraat","Aalst","9300","239.3","50.92861581242053","4.060865672740964"
"GRB:1121364","143489","GRB","street","Louis D'Haeseleerstraat","","Louis D'Haeseleerstraat","Aalst","9300","135.23","50.93553516846801","4.041308410693722"
"GRB:1227907","143490","GRB","street","Laborstraat","","Laborstraat","Aalst","9300","98.4","50.93827602959061","4.050807644928074"
"GRB:1212926","143491","GRB","street","Leenlaan","","Leenlaan","Aalst","9300","246.4","50.95452510570616","4.046612981811396"
"GRB:1138448","143492","GRB","street","Leo Gheeraerdtslaan","","Leo Gheeraerdtslaan","Aalst","9300","387.33","50.93677101130756","4.047237149952657"
"GRB:1121686","143493","GRB","street","Hoezekouterdreef","","Hoezekouterdreef","Aalst","9300","479.33","50.921908762513105","4.026205951602943"
"GRB:1196516","143494","GRB","street","Klein Parksken","","Klein Parksken","Aalst","9300","85.3","50.937833283529784","4.028628501542619"
"GRB:1169397","143495","GRB","street","Korte Vooruitzichtstraat","","Korte Vooruitzichtstraat","Aalst","9300","179.57","50.94369712755906","4.019540876830762"
"GRB:1231224","143496","GRB","street","Frans Roucelstraat","","Frans Roucelstraat","Aalst","9300","128.09","50.93076058939596","4.025364893747554"
"GRB:1198732","143497","GRB","street","Frédéric Van der Nootstraat","","Frédéric Van der Nootstraat","Aalst","9300","109.87","50.93349843849281","4.0465218383481325"
"GRB:1150332","143498","GRB","street","Henri Matthieustraat","","Henri Matthieustraat","Aalst","9300","163.45","50.94945853712729","4.053095410376817"
"GRB:1126742","143499","GRB","street","Borreput","","Borreput","Aalst","9300","157.04","50.93851663586848","4.073714349008153"
"GRB:1207013","143500","GRB","street","Dr. André Sierensstraat","","Dr. André Sierensstraat","Aalst","9300","241.91","50.941812030261154","4.040828137020468"
"GRB:1231193","143501","GRB","street","Dr. Jozef Kluyskensstraat","","Dr. Jozef Kluyskensstraat","Aalst","9300","120.05","50.94199892422409","4.031013918057867"
"GRB:1433609","143502","GRB","street","Anna Snelstraat","","Anna Snelstraat","Aalst","9300","91.37","50.93639557141772","4.043296488866371"
"GRB:1215883","143503","GRB","street","Arendsveld","","Arendsveld","Aalst","9300","117.45","50.94891081330367","4.055942411374041"
"GRB:1526382","143504","GRB","street","Bert Van Hoorickstraat","","Bert Van Hoorickstraat","Aalst","9300","176.36","50.939346549236646","4.0320890718753875"
"GRB:1142895","143505","GRB","street","Afspanningsstraat","","Afspanningsstraat","Aalst","9300","124.32","50.93592088187099","4.0237607541808655"
"GRB:1433616","143506","GRB","street","Alfred Keldersstraat","","Alfred Keldersstraat","Aalst","9300","61.46","50.938692983061095","4.035377092001557"
"GRB:1221110","143507","GRB","street","Roland Monteynestraat","","Roland Monteynestraat","Aalst","9300","453.78","50.98178352023389","4.065836070779443"
"GRB:1186782","143508","GRB","street","Steenweg naar Oudegem","","Steenweg naar Oudegem","Aalst","9300","364.4","50.993325858100675","4.053066501096539"
"GRB:1207634","143509","GRB","street","Vereeckenstraat","","Vereeckenstraat","Aalst","9300","210.88","50.9845073258264","4.05560764322319"
"GRB:1209012","143510","GRB","street","Neerhoflaan","","Neerhoflaan","Aalst","9300","370.14","50.98829546938741","4.046188934885868"
"GRB:1235250","143511","GRB","street","Osseweilaan","","Osseweilaan","Aalst","9300","196.8","50.98592174780115","4.057877386558683"
"GRB:1189466","143512","GRB","street","Pachthofstraat","","Pachthofstraat","Aalst","9300","337.46","50.988901565438084","4.041142417308717"
"GRB:1155141","143513","GRB","street","Gijzegem-Dorp","","Gijzegem-Dorp","Aalst","9300","212.84","50.98481410053197","4.052181835264873"
"GRB:1150341","143514","GRB","street","Gravin de Robianostraat","","Gravin de Robianostraat","Aalst","9300","138.37","50.98474354867507","4.046395313033327"
"GRB:1167628","143515","GRB","street","Meirbeekstraat","","Meirbeekstraat","Aalst","9300","160.45","50.983349253191435","4.055906496068243"
"GRB:1111898","143516","GRB","street","Ansmeerweg","","Ansmeerweg","Aalst","9300","137.09","50.98356210791949","4.038983350543552"
"GRB:1155150","143517","GRB","street","Nekkersweg","","Nekkersweg","Aalst","9300","71.96","50.96811267975483","4.029942842669834"
"GRB:1189455","143518","GRB","street","Vondelbeekstraat","","Vondelbeekstraat","Aalst","9300","226.82","50.97321889614229","4.031981205376031"
"GRB:1190851","143519","GRB","street","Kuipersstraat","","Kuipersstraat","Aalst","9300","272.52","50.97086346152117","4.039230282092672"
"GRB:1221906","143520","GRB","street","Maurits De Smetstraat","","Maurits De Smetstraat","Aalst","9300","137.15","50.96460014779009","4.029727380318341"
"GRB:1114105","143521","GRB","street","Nederhase","","Nederhase","Aalst","9300","260.82","50.97449970894998","4.047341863666402"
"GRB:1155230","143522","GRB","street","Karel Van der Slotenstraat","","Karel Van der Slotenstraat","Aalst","9300","231.22","50.966885335663534","4.029570819511747"
"GRB:1221683","143523","GRB","street","Konijnenberg","","Konijnenberg","Aalst","9300","265.92","50.95690939636573","4.035239860370687"
"GRB:1143811","143524","GRB","street","Krokusstraat","","Krokusstraat","Aalst","9300","157.51","50.9685130432296","4.036101440743358"
"GRB:1183395","143525","GRB","street","Hof te Vierenstraat","","Hof te Vierenstraat","Aalst","9300","98.59","50.976621301016785","4.0375189833124345"
"GRB:1145899","143526","GRB","street","Hofstade-Dorp","","Hofstade-Dorp","Aalst","9300","64.7","50.96073026403535","4.034224747507163"
"GRB:1145052","143527","GRB","street","Kamdriesstraat","","Kamdriesstraat","Aalst","9300","245.91","50.96946100630527","4.018591374318629"
"GRB:1168671","143528","GRB","street","Gooikenstraat","","Gooikenstraat","Aalst","9300","226.01","50.956464530475984","4.031605306302563"
"GRB:1104271","143529","GRB","street","Heerlijkheidstraat","","Heerlijkheidstraat","Aalst","9300","227.79","50.9767118421581","4.038460418277238"
"GRB:1172974","143530","GRB","street","Aldegondisstraat","","Aldegondisstraat","Aalst","9300","350.95","50.97491710138085","4.040988041619104"
"GRB:1207995","143531","GRB","street","Brulken","","Brulken","Aalst","9300","179.44","50.96507585118028","4.029233457624716"
"GRB:1192990","143532","GRB","street","Meivisstraat","","Meivisstraat","Aalst","9300","372.84","50.97561150080079","4.06462892012518"
"GRB:1526397","143533","GRB","street","Oude Pastorijwegel","","Oude Pastorijwegel","Aalst","9300","71.23","50.97203497840735","4.064967968941815"
"GRB:1144674","143534","GRB","street","Ten Beeldeken","","Ten Beeldeken","Aalst","9300","52.76","50.963103629586335","4.061743025115121"
"GRB:1122765","143535","GRB","street","Hof ter Hammestraat","","Hof ter Hammestraat","Aalst","9300","554.91","50.96949226199339","4.056941186481719"
"GRB:1133107","143536","GRB","street","Koekeroel","","Koekeroel","Aalst","9300","297.99","50.968965682445955","4.071110927582958"
"GRB:752629","143537","GRB","street","Landweg","","Landweg","Aalst","9300","390.27","50.97146789412823","4.074109161085499"
"GRB:1093469","143538","GRB","street","Baatmeers","","Baatmeers","Aalst","9300","322.52","50.96814454690901","4.080376592298771"
"GRB:1492259","143539","GRB","street","Henri Moensstraat","","Henri Moensstraat","Aalst","9300","62.6","50.971682862317614","4.066637643834896"
"GRB:1183432","143540","GRB","street","Herdersem-Dorp","","Herdersem-Dorp","Aalst","9300","167.73","50.970953458529756","4.067941285482292"
"GRB:1150540","143541","GRB","street","Vossenshofweg","","Vossenshofweg","Aalst","9300","160.34","50.935394868048135","4.133340100144006"
"GRB:1507651","143542","GRB","street","Walburgaweg","","Walburgaweg","Aalst","9300","119.87","50.939238285722666","4.126190580424681"
"GRB:1201364","143543","GRB","street","Maaldershofstraat","","Maaldershofstraat","Aalst","9300","179.78","50.94227389821849","4.138481120996372"
"GRB:1178790","143544","GRB","street","Meldert-Dorp","","Meldert-Dorp","Aalst","9300","222.05","50.93637064492037","4.13368523206439"
"GRB:1132046","143545","GRB","street","Nedermolenstraat","","Nedermolenstraat","Aalst","1790","416.21","50.921806115407975","4.126610327569867"
"GRB:1182642","143546","GRB","street","Faluintjesstraat","","Faluintjesstraat","Aalst","9300","203.25","50.93906460237894","4.134472542310259"
"GRB:1099723","143547","GRB","street","Kammenkouterstraat","","Kammenkouterstraat","Aalst","9300","240.76","50.94926202256805","4.119512370917702"
"GRB:1213958","143548","GRB","street","Kempinnestraat","","Kempinnestraat","Aalst","9300","388.28","50.93303746850725","4.128169159262532"
"GRB:1116513","143549","GRB","street","Seepscherf","","Seepscherf","Aalst","9300","319.32","50.962354443320464","4.139911808896957"
"GRB:1106579","143550","GRB","street","Rampelberg","","Rampelberg","Aalst","9300","321.89","50.958703957701104","4.1383052841161305"
"GRB:1112478","143551","GRB","street","Scherpenheuvelstraat","","Scherpenheuvelstraat","Aalst","9300","87.09","50.9565379902178","4.142359267732015"
"GRB:1108862","143552","GRB","street","Schippersweg","","Schippersweg","Aalst","9300","248.1","50.95551152118871","4.139523908311014"
"GRB:1104915","143553","GRB","street","Houwelgat","","Houwelgat","Aalst","9300","237.66","50.95164108551971","4.1455125655429335"
"GRB:1168437","143554","GRB","street","Margrietstraat","","Margrietstraat","Aalst","9300","221.77","50.95780316061731","4.140833774151845"
"GRB:1113839","143555","GRB","street","Melkspinde","","Melkspinde","Aalst","9300","280.67","50.956799107824274","4.146104149142757"
"GRB:1514272","143556","GRB","street","Baardegem-Dorp","","Baardegem-Dorp","Aalst","9300","184.34","50.95295953868156","4.139736162563062"
"GRB:1137822","143557","GRB","street","Bieseweide","","Bieseweide","Aalst","9300","120.94","50.95020902986997","4.137763916909027"
"GRB:1119369","143558","GRB","street","Cassestraat","","Cassestraat","Aalst","9300","223.99","50.96121595035957","4.133369715210721"
"GRB:1200236","143559","GRB","street","Steven","","Steven","Aalst","9300","268.36","50.971224546639675","4.106639393468992"
"GRB:1179297","143560","GRB","street","Waterkasteel","","Waterkasteel","Aalst","9300","212.1","50.946848150180415","4.101825580864664"
"GRB:1172374","143561","GRB","street","Pachting","","Pachting","Aalst","9300","200.32","50.94440780508833","4.0865208330252845"
"GRB:1191014","143562","GRB","street","Pee Klakstraat","","Pee Klakstraat","Aalst","9300","127.26","50.94812262104114","4.105198754187199"
"GRB:1148355","143563","GRB","street","Raymond Uyttersprotstraat","","Raymond Uyttersprotstraat","Aalst","9300","141.11","50.94839354608225","4.099387355361824"
"GRB:1507593","143564","GRB","street","Kortenbosdries","","Kortenbosdries","Aalst","9300","212.64","50.95393697192493","4.100428886512044"
"GRB:1169919","143565","GRB","street","Leirekenstraat","","Leirekenstraat","Aalst","9300","144.18","50.95000544020593","4.101074124955699"
"GRB:1472497","143566","GRB","street","Moorsel-Dorp","","Moorsel-Dorp","Aalst","9300","38.62","50.947652270625554","4.098324136606597"
"GRB:1108904","143567","GRB","street","Gierlastraat","","Gierlastraat","Aalst","9300","144.96","50.94987073375631","4.102299023158936"
"GRB:1109327","143568","GRB","street","Heidebosstraat","","Heidebosstraat","Aalst","9300","220.65","50.958296941849774","4.113869518320671"
"GRB:1142990","143569","GRB","street","Karel van Croydreef","","Karel van Croydreef","Aalst","9300","272.84","50.94656396371885","4.104828657523713"
"GRB:1160749","143570","GRB","street","Dresselweg","","Dresselweg","Aalst","9300","113.26","50.95103565510212","4.087049279409774"
"GRB:1217756","143571","GRB","street","Elzenweg","","Elzenweg","Aalst","9300","238.75","50.939228069346285","4.104677023699574"
"GRB:1118225","143572","GRB","street","Geensbeekstraat","","Geensbeekstraat","Aalst","9300","152.52","50.95295029954463","4.103170585303937"
"GRB:766744","143573","GRB","street","Berlindisweg","","Berlindisweg","Aalst","9300","83.5","50.94879634741788","4.098489243723238"
"GRB:1227819","143574","GRB","street","Beukennotenbosstraat","","Beukennotenbosstraat","Aalst","9300","123.76","50.95361087493369","4.104476568554302"
"GRB:1115063","143575","GRB","street","Bloemenveldstraat","","Bloemenveldstraat","Aalst","9300","246.03","50.95548056583196","4.083762181270235"
"GRB:740255","143576","GRB","street","Baaikensveldweg","","Baaikensveldweg","Aalst","9300","90.73","50.95625145436979","4.089153355483482"
"GRB:744987","143577","GRB","street","Berggouw","","Berggouw","Aalst","9300","159.62","50.95096021989399","4.108818309502912"
"GRB:1111783","143578","GRB","street","Bergsken","","Bergsken","Aalst","9300","174.53","50.94506708749755","4.097990605496247"
"GRB:1172452","143579","GRB","street","Achtzaligheden","","Achtzaligheden","Aalst","9300","195.53","50.951157313629096","4.097076831563085"
"GRB:1149695","143580","GRB","street","Vlierbesstraat","","Vlierbesstraat","Aalst","9300","139.44","50.92359462347362","3.9861256753491823"
"GRB:1152942","143581","GRB","street","Tolstraat","","Tolstraat","Aalst","9300","184.57","50.922085979471035","4.001707444517805"
"GRB:1433595","143582","GRB","street","'t Vestjen","","'t Vestjen","Aalst","9300","66.87","50.92463554620348","4.002436269573708"
"GRB:1121993","143583","GRB","street","Vlaamsegaaistraat","","Vlaamsegaaistraat","Aalst","9300","257.62","50.922979534279236","4.006673224011845"
"GRB:1227852","143584","GRB","street","Patrick Lanckmanstraat","","Patrick Lanckmanstraat","Aalst","9300","256.44","50.92746487534097","4.000465566534234"
"GRB:1198495","143585","GRB","street","Sintelstraat","","Sintelstraat","Aalst","9300","203.62","50.9270348662643","4.018279367884531"
"GRB:1109008","143586","GRB","street","Spechtweg","","Spechtweg","Aalst","9300","70.01","50.91895290588602","3.990287316266686"
"GRB:1136311","143587","GRB","street","Nieuwenbroekstraat","","Nieuwenbroekstraat","Aalst","9300","257.59","50.92932310590488","4.002758417671869"
"GRB:1156046","143588","GRB","street","Nieuwerkerken-Dorp","","Nieuwerkerken-Dorp","Aalst","9300","201.67","50.92385075031663","4.006144877650636"
"GRB:747913","143589","GRB","street","Papaverstraat","","Papaverstraat","Aalst","9300","240.01","50.91273709914108","4.017684706783229"
"GRB:1150296","143590","GRB","street","Lippenshofweg","","Lippenshofweg","Aalst","9300","165.06","50.927239863007294","4.003806471490588"
"GRB:1184846","143591","GRB","street","Louis Callebautstraat","","Louis Callebautstraat","Aalst","9300","309.17","50.93332849029852","3.998924981186842"
"GRB:1203354","143592","GRB","street","Luc Schampstraat","","Luc Schampstraat","Aalst","9300","108.22","50.92141327183778","3.9888011101363774"
"GRB:1174738","143593","GRB","street","Ankerstraat","","Ankerstraat","Aalst","9300","279.61","50.91968824671172","4.006005045884742"
"GRB:1177039","143594","GRB","street","Blauwenbergstraat","","Blauwenbergstraat","Aalst","9300","400.19","50.93212746404507","4.000105750139243"
"GRB:1145646","143595","GRB","street","Désiré Souffreauweg","","Désiré Souffreauweg","Aalst","9300","94.49","50.91839393434442","4.004142852120547"
"GRB:1232366","143596","GRB","street","Wingerd","","Wingerd","Aalst","9300","152.12","50.908356259136596","4.078537913654693"
"GRB:1197395","143597","GRB","street","Perenboomstraat","","Perenboomstraat","Aalst","9300","171.19","50.92212405632347","4.061455220016014"
"GRB:1162065","143598","GRB","street","Plataanlaan","","Plataanlaan","Aalst","9300","206.46","50.914197486098516","4.029383042439984"
"GRB:758568","143599","GRB","street","Tweetegelstraat","","Tweetegelstraat","Aalst","9300","88.31","50.91903217097795","4.053152055687281"
"GRB:1164311","143600","GRB","street","Watervenne","","Watervenne","Aalst","9300","172.82","50.91095204427727","4.048586283236682"
"GRB:1231657","143601","GRB","street","Melkweg","","Melkweg","Aalst","9300","245.47","50.92094618969148","4.050870212040254"
"GRB:753342","143602","GRB","street","Orangeriestraat","","Orangeriestraat","Aalst","9300","139.2","50.92134067846848","4.043526728570052"
"GRB:1118520","143603","GRB","street","Papeveld","","Papeveld","Aalst","9300","111.83","50.912642196683","4.076761908315149"
"GRB:1095622","143604","GRB","street","Letterveldweg","","Letterveldweg","Aalst","9300","530.33","50.911243595171","4.086261466288289"
"GRB:1180805","143605","GRB","street","Lijsterbesstraat","","Lijsterbesstraat","Aalst","9300","202.2","50.92025079546767","4.072336873069993"
"GRB:1152940","143606","GRB","street","Meidoornlaan","","Meidoornlaan","Aalst","9300","80.33","50.914800785042985","4.026093975660135"
"GRB:1093010","143607","GRB","street","Kluizerij","","Kluizerij","Aalst","9300","231.37","50.92354403956786","4.085894051926949"
"GRB:1133194","143608","GRB","street","Kwadelapstraat","","Kwadelapstraat","Aalst","9300","160.63","50.91059407087154","4.052477432944015"
"GRB:1230190","143609","GRB","street","Lepelloi","","Lepelloi","Aalst","9300","94.27","50.906566521114556","4.026404235868904"
"GRB:1167667","143610","GRB","street","Italiënweg","","Italiënweg","Aalst","9300","423.61","50.91442126027947","4.055884086083009"
"GRB:1109212","143611","GRB","street","Jagershoek","","Jagershoek","Aalst","9300","203.35","50.921046364845346","4.071133881352184"
"GRB:745709","143612","GRB","street","Kempkensstraat","","Kempkensstraat","Aalst","9300","176.52","50.9205140710876","4.063263282296586"
"GRB:1177779","143613","GRB","street","Hekelgemstraat","","Hekelgemstraat","Aalst","9300","170.45","50.922635423629174","4.0785386612316294"
"GRB:1153112","143614","GRB","street","Hinnensveld","","Hinnensveld","Aalst","9300","78.95","50.915244558394775","4.0267559749003965"
"GRB:738859","143615","GRB","street","Haagbeukstraat","","Haagbeukstraat","Aalst","9300","391.41","50.90960618506523","4.021403559817379"
"GRB:1109522","143616","GRB","street","Haantjesweg","","Haantjesweg","Aalst","9300","182.96","50.91019633481208","4.029558304104382"
"GRB:1199884","143617","GRB","street","Heilborre","","Heilborre","Aalst","9300","127.91","50.9175381454003","4.051886376409399"
"GRB:1222217","143618","GRB","street","Dotterbloemstraat","","Dotterbloemstraat","Aalst","9300","118.71","50.91226999174187","4.031318249365161"
"GRB:1228204","143619","GRB","street","Erembodegem-Dorp","","Erembodegem-Dorp","Aalst","9300","142.16","50.92011150069381","4.056833732317121"
"GRB:1203222","143620","GRB","street","Groenenbrielstraat","","Groenenbrielstraat","Aalst","9300","199.5","50.92082132380066","4.048666058157455"
"GRB:1147040","143621","GRB","street","Asterstraat","","Asterstraat","Aalst","9300","64.3","50.916334412239884","4.054254312460964"
"GRB:1187722","143622","GRB","street","d'Uitseweg","","d'Uitseweg","Aalst","9300","240.38","50.9164858422975","4.050958314904705"
"GRB:1190957","144121","GRB","street","Vlasstraat","","Vlasstraat","Aalst","9300","139.43","50.97598149244182","4.067680191080359"
"GRB:1462990","144122","GRB","street","Waterkeringstraat","","Waterkeringstraat","Aalst","9300","352.44","50.906507542113324","4.037450888190996"
"GRB:1200831","144310","GRB","street","Kasteelstraat","","Kasteelstraat","Aalst","9300","176.47","50.966557530931","4.036240760488832"
"GRB:1231359","144311","GRB","street","Tragel","","Tragel","Aalst","9300","308.83","50.953347451258374","4.0368618350463255"
"GRB:1115804","144476","GRB","street","Klaverstraat","","Klaverstraat","Aalst","9300","202.61","50.950025111928134","4.053414081618549"
"GRB:1194442","144477","GRB","street","Pieter De Bruynestraat","","Pieter De Bruynestraat","Aalst","9300","170.75","50.950496015349195","4.051504750224165"
"GRB:1209084","146081","GRB","street","Steenoven","","Steenoven","Aalst","9300","219.1","50.92014556569903","4.009102721275664"
"GRB:1100585","146343","GRB","street","Oscar Debunnestraat","","Oscar Debunnestraat","Aalst","9300","335.35","50.94949720980304","4.068519039907391"
"GRB:1433634","146344","GRB","street","Haynehof","","Haynehof","Aalst","9300","69.75","50.9853010282696","4.050357289436375"
"GRB:1217302","147187","GRB","street","Schoolstraat","","Schoolstraat","Aalst","9300","156.27","50.92132814644044","4.011018222628641"
"GRB:1219410","148430","GRB","street","Wacheneveld","","Wacheneveld","Aalst","9300","223.34","50.970142548558826","4.039031055886456"
"GRB:1433658","152471","GRB","street","Salaartsbos","","Salaartsbos","Aalst","9300","94.59","50.95360288402512","4.060134980092804"
"GRB:1198307","153203","GRB","street","Ajuinenstraat","","Ajuinenstraat","Aalst","9300","180.57","50.952553009216366","4.0574185809824925"
"GRB:1217571","155134","GRB","street","Jozef Borremanstraat","","Jozef Borremanstraat","Aalst","9300","81.74","50.94601583331092","4.06172560951324"
"GRB:1514300","155135","GRB","street","Lijnzaadstraat","","Lijnzaadstraat","Aalst","9300","151.92","50.95259481723892","4.0673169417488095"
"GRB:731092","155136","GRB","street","Koolzaadstraat","","Koolzaadstraat","Aalst","9300","301.15","50.95193437138405","4.064411972933694"
"GRB:1433668","155137","GRB","street","Louis De Rijckestraat","","Louis De Rijckestraat","Aalst","9300","64.51","50.949464387800994","4.051917350780394"
"GRB:1230126","155138","GRB","street","Handbos","","Handbos","Aalst","9300","115.14","50.92242718785489","4.0728311887889275"
"GRB:1216125","163438","GRB","street","Haring","","Haring","Aalst","9300","17.79","50.92769297227687","4.034784137663942"
"GRB:1125914","163462","GRB","street","N45 - richting Ninove","","N45 - richting Ninove","Aalst","9300","844.15","50.90982625862764","4.032192131474204"
"GRB:1472500","163463","GRB","street","N45 - richting Aalst","","N45 - richting Aalst","Aalst","9300","219.19","50.91266737641856","4.0323043995536105"
"GRB:1205151","166352","GRB","street","De Coninckstraat","","De Coninckstraat","Aalst","9300","56.04","50.939184900397414","4.042570729339611"
"GRB:1164475","166405","GRB","street","Sas-baan","","Sas-baan","Aalst","9300","207.45","50.98387859241653","4.073163732621453"
"GRB:1433673","172090","GRB","street","Houtzagerijstraat","","Houtzagerijstraat","Aalst","9300","334.41","50.9584552581763","4.030237907529459"
"GRB:1433783","179679","GRB","street","Eversberg","","Eversberg","Aalst","9300","132.79","50.922583707830306","4.035446219136336"
"GRB:1433670","180748","GRB","street","Het Walleken","","Het Walleken","Aalst","9300","134.07","50.94962051970664","4.047052583715611"
"GRB:1192397","181678","GRB","street","Fritz De Wolfkaai","","Fritz De Wolfkaai","Aalst","9300","169.01","50.94043387286184","4.0440484857246695"
"GRB:1149950","181711","GRB","street","Bauwensplein","","Bauwensplein","Aalst","9300","29.02","50.94245239009307","4.036416303720727"
"GRB:1526398","182029","GRB","street","Kosterijken","","Kosterijken","Aalst","9300","104.62","50.970135795092375","4.035722839230078"
"GRB:1484949","185319","GRB","street","Wijmenput","","Wijmenput","Aalst","9300","120.23","50.94711619675627","4.039863248829679"
"GRB:1484978","187260","GRB","street","Warande","","Warande","Aalst","9300","168.57","50.94645423978981","4.039168241955981"
"GRB:1507583","187261","GRB","street","Oliemolen","","Oliemolen","Aalst","9300","239.6","50.938126271970575","4.018183135629053"
"GRB:1507617","190055","GRB","street","Sleedoorn","","Sleedoorn","Aalst","9300","87.51","50.93379038198018","4.079416587827235"
"GRB:1484981","190057","GRB","street","Merbolaan","","Merbolaan","Aalst","9300","129.5","50.93331321816212","4.0775531514652466"
"GRB:1484983","190058","GRB","street","Patrijs","","Patrijs","Aalst","9300","131.37","50.931330751244104","4.072168438222986"
"GRB:1176363","190060","GRB","street","Kwartel","","Kwartel","Aalst","9300","89.91","50.93034439205408","4.070145128093137"
"GRB:1484998","190061","GRB","street","Kievit","","Kievit","Aalst","9300","135.69","50.930117501187475","4.068843306359214"
"GRB:734618","190062","GRB","street","Pastinaak","","Pastinaak","Aalst","9300","315.57","50.933433833563264","4.066110445161035"
"GRB:1484985","190063","GRB","street","Postelein","","Postelein","Aalst","9300","245.13","50.933592782453466","4.067347968582059"
"GRB:1484988","190064","GRB","street","Tarrijntjes","","Tarrijntjes","Aalst","9300","132.56","50.935859910474306","4.078858768673087"
"GRB:1484989","190065","GRB","street","Takkeling","","Takkeling","Aalst","9300","168.65","50.93585243784315","4.0778097436164416"
"GRB:1484992","190066","GRB","street","Stokduif","","Stokduif","Aalst","9300","215.38","50.93581546727797","4.07650575294192"
"GRB:1484990","190067","GRB","street","Steekvogel","","Steekvogel","Aalst","9300","230.28","50.93567486207188","4.075629651177609"
"GRB:1484991","190068","GRB","street","Sperwer","","Sperwer","Aalst","9300","234.03","50.9354911967979","4.074404739563491"
"GRB:1148557","190619","GRB","street","Molenbaan","","Molenbaan","Lebbeke","9280","143.71","50.971427617715534","4.093073848550498"
"GRB:1484960","190623","GRB","street","Herman De Vosstraat","","Herman De Vosstraat","Aalst","9300","60.54","50.93078183078041","4.036256946418423"
"GRB:1484940","192426","GRB","street","Nette Coessensstraat","","Nette Coessensstraat","Aalst","9300","181.58","50.936183314755965","4.02159027230428"
"GRB:1507621","199888","GRB","street","Kunstzijdestraat","","Kunstzijdestraat","Aalst","9300","337.66","50.94929365502075","4.034274209627072"
"GRB:1526412","220622","GRB","street","Louise Mayartstraat","","Louise Mayartstraat","Aalst","9300","107.55","50.94486413794947","4.060566027274142"
"GRB:1526411","220623","GRB","street","Clara 't Roenstraat","","Clara 't Roenstraat","Aalst","9300","31.33","50.944437734100305","4.0611951465441765"
"GRB:1526417","220624","GRB","street","Kardoenstraat","","Kardoenstraat","Aalst","9300","67.64","50.92583965634173","4.031220873684141"
"GRB:1526415","220625","GRB","street","Rammenasstraat","","Rammenasstraat","Aalst","9300","55.01","50.92592246598262","4.030637651207032"
"GRB:1526418","220626","GRB","street","Molslastraat","","Molslastraat","Aalst","9300","58.74","50.92632530262226","4.030016618034279"
"GRB:1140827","-9","GRB","street","nvt","","nvt","ng","9300","108.95","50.971395211390316","4.1118733432070425"